{"type":"FeatureCollection","features":[{"type":"Feature","geometry":{"type":"Polygon","coordinates":[[[113.842,22.2082],[114.2608,22.1601],[114.2739,22.165],[114.3732,22.3543],[114.3977,22.4361],[114.3598,22.4864],[114.3254,22.5005],[114.2198,22.542052],[113.9989,22.4893],[113.915,22.3753],[113.842,22.2082]]]},"properties":{"country_key":"china","region_key":"hongkong","display_name":"香港特别行政区","country_display":"China","name":"HongKong","keys":["china|hongkong","china|香港"],"legacy_region_key":"香港","geo_key":"china|hongkong","parent_geo_key":"china","region_id":"admin1|china|hongkong","display_only":true,"is_special_admin":true,"display_geometry_mode":"curated-special-admin-envelope","component_count_before":1,"component_count_after":1}},{"type":"Feature","geometry":{"type":"Polygon","coordinates":[[[113.5317,22.1793],[113.5501,22.1121],[113.5874,22.1651],[113.561,22.2101],[113.5535,22.2155],[113.5317,22.1793]]]},"properties":{"country_key":"china","region_key":"aomen","display_name":"澳门特别行政区","country_display":"China","name":"Aomen","keys":["china|aomen","china|澳门"],"legacy_region_key":"澳门","geo_key":"china|aomen","parent_geo_key":"china","region_id":"admin1|china|aomen","display_only":true,"is_special_admin":true,"display_geometry_mode":"curated-special-admin-envelope","component_count_before":1,"component_count_after":1}},{"type":"Feature","properties":{"country_key":"china","region_key":"zhuhai","display_name":"珠海市","country_display":"China","name":"Zhuhai","keys":["china|guangdong|zhuhai","china|zhuhai","china|珠海"],"legacy_region_key":"珠海","geo_key":"china|guangdong|zhuhai","parent_geo_key":"china|guangdong","province_key":"china|guangdong","region_id":"city|china|guangdong|zhuhai","display_only":true,"display_geometry_mode":"curated-coastal-envelope","component_count_before":15,"component_count_after":1},"geometry":{"type":"Polygon","coordinates":[[[113.579755,22.432347],[113.5801,22.4272],[113.541782,22.414299],[113.490877,22.39716],[113.4978,22.3276],[113.4645,22.3124],[113.5073,22.2526],[113.415663,22.210938],[113.4081,22.2075],[113.3485,22.2497],[113.2575,22.3966],[113.1578,22.4013],[113.188,22.3621],[113.166929,22.258164],[113.1657,22.2521],[113.164689,22.251383],[113.107411,22.210782],[113.1053,22.2028],[113.1058,22.0705],[113.1212,21.9],[113.1364,21.837],[114.1501,21.9828],[114.2101,21.9963],[114.3024,22.0442],[114.3158,22.0663],[114.166309,22.170952],[113.842,22.2082],[113.905493,22.353539],[113.8067,22.4227],[113.6525,22.4377],[113.579755,22.432347]],[[113.5317,22.1793],[113.5535,22.2155],[113.561,22.2101],[113.5874,22.1651],[113.5501,22.1121],[113.5317,22.1793]]]}}]}
