{"type":"FeatureCollection","features":[{"type":"Feature","geometry":{"type":"Polygon","coordinates":[[[113.842,22.2082],[114.2608,22.1601],[114.2739,22.165],[114.3732,22.3543],[114.3977,22.4361],[114.3598,22.4864],[114.3254,22.5005],[114.2198,22.542052],[113.9989,22.4893],[113.915,22.3753],[113.842,22.2082]]]},"properties":{"country_key":"china","region_key":"hongkong","display_name":"香港特别行政区","country_display":"China","name":"HongKong","keys":["china|hongkong","china|香港"],"legacy_region_key":"香港","geo_key":"china|hongkong","parent_geo_key":"china","region_id":"admin1|china|hongkong","display_only":true,"is_special_admin":true}},{"type":"Feature","geometry":{"type":"Polygon","coordinates":[[[113.5317,22.1793],[113.5501,22.1121],[113.5874,22.1651],[113.561,22.2101],[113.5535,22.2155],[113.5317,22.1793]]]},"properties":{"country_key":"china","region_key":"aomen","display_name":"澳门特别行政区","country_display":"China","name":"Aomen","keys":["china|aomen","china|澳门"],"legacy_region_key":"澳门","geo_key":"china|aomen","parent_geo_key":"china","region_id":"admin1|china|aomen","display_only":true,"is_special_admin":true}}]}
