{"type":"FeatureCollection","features":[{"type":"Feature","properties":{"boundary_group":"__special_admins__","parent_geo_key":"china","country_key":"china","left_geo_key":"china|hongkong","right_geo_key":""},"geometry":{"type":"LineString","coordinates":[[114.2608,22.1601],[113.842,22.2082],[113.915,22.3753],[113.9989,22.4893],[114.2198,22.542052],[114.3254,22.5005],[114.3598,22.4864],[114.3977,22.4361],[114.3732,22.3543],[114.2739,22.165],[114.2608,22.1601]]}},{"type":"Feature","properties":{"boundary_group":"__special_admins__","parent_geo_key":"china","country_key":"china","left_geo_key":"china|aomen","right_geo_key":""},"geometry":{"type":"LineString","coordinates":[[113.5501,22.1121],[113.5317,22.1793],[113.5535,22.2155],[113.561,22.2101],[113.5874,22.1651],[113.5501,22.1121]]}}]}
