{"type":"FeatureCollection", "features": [
{"type":"Feature","geometry":{"type":"MultiLineString","coordinates":[[[117.2165,40.0654],[117.1934,40.0671],[117.1753,40.0579],[116.7734,40.0333],[116.7811,39.8843],[116.9203,39.8334],[116.8866,39.689]],[[116.805991,39.614808],[116.5634,39.6193],[116.3965,39.5255],[116.416787,39.448961],[116.292142,39.486942],[116.2529,39.4989],[116.209117,39.562015],[116.1785,39.5897],[115.9536,39.5598],[115.9044,39.5997],[115.7804,39.5089],[115.7534,39.5127],[115.6663,39.6083],[115.5128,39.5936],[115.4238,39.7739],[115.5632,39.8124],[115.4172,39.9545],[115.4478,40.0281],[115.7636,40.169],[115.8412,40.1459],[115.9618,40.2624],[115.7638,40.4438],[115.7466,40.535],[115.9019,40.6161],[115.9891,40.5785],[116.1157,40.6283],[116.2411,40.7901],[116.4477,40.7642],[116.3279,40.9191],[116.468,40.8944],[116.4492,40.9781],[116.5919,40.9733],[116.6255,41.059],[116.6838,41.0426],[116.7072,40.9116],[116.9628,40.7062],[117.4422,40.6497],[117.4125,40.5672],[117.3048,40.5758],[117.2016,40.4985],[117.2556,40.439],[117.2198,40.3678],[117.3443,40.2285],[117.3709,40.2171],[117.383464,40.201118]]]},"properties":{"boundary_group":"china-provinces"}},
{"type":"Feature","geometry":{"type":"MultiLineString","coordinates":[[[116.8866,39.689],[116.805991,39.614808]],[[117.383464,40.201118],[117.3981,40.1825],[117.348,40.1377],[117.2165,40.0654]]]},"properties":{"boundary_group":"china-provinces"}},
{"type":"Feature","geometry":{"type":"MultiLineString","coordinates":[[[117.383464,40.201118],[117.398648,40.228272],[117.4094,40.2475],[117.5585,40.2276],[117.6392,40.0959],[117.7696,40.0579],[117.7368,40.0165],[117.788,40.0098],[117.7756,39.9664],[117.5314,39.9888],[117.5053,39.9327],[117.5441,39.7618],[117.637465,39.684324],[117.6334,39.5921],[117.7041,39.5346],[117.7614,39.5978],[117.9239,39.5771],[117.8543,39.3838],[117.7966,39.3599],[117.9685,39.3122],[118.0584,39.2547],[118.0299,39.2214],[118.0231,39.2021]],[[117.5867,38.6129],[117.247,38.5555],[117.2189,38.6431],[117.0919,38.586],[117.0356,38.706],[116.8715,38.6801],[116.8639,38.7374],[116.7387,38.7518],[116.7024,38.9298],[116.7504,39.0494],[116.8658,39.0538],[116.9182,39.1187],[116.85,39.2148],[116.8796,39.3382],[116.8122,39.3725],[116.8581,39.4256],[116.783,39.4698],[116.805991,39.614808]],[[116.8866,39.689],[116.911,39.7053],[116.9692,39.6361],[117.1663,39.6352],[117.1472,39.735],[117.1996,39.7626],[117.15,39.8161],[117.2502,39.8419],[117.142,39.8955],[117.136,39.9207],[117.153686,39.952491],[117.2165,40.0654]]]},"properties":{"boundary_group":"china-provinces"}},
{"type":"Feature","geometry":{"type":"LineString","coordinates":[[117.749422,38.136426],[117.709908,38.089863],[117.6967,38.0743],[117.5588,38.0631],[117.433,37.8538],[116.7889,37.8462],[116.432,37.4754],[116.3299,37.5756],[116.2751,37.4697],[116.219,37.4792],[116.2724,37.4055],[116.2308,37.361],[115.9706,37.3369],[115.9637,37.239],[115.7628,36.9154],[115.6776,36.812],[115.4741,36.7598],[115.322147,36.543648],[115.2912,36.4167],[115.3478,36.3126],[115.439688,36.276409],[115.4618,36.2677],[115.469904,36.215823],[115.47389,36.19031],[115.466951,36.151584]]},"properties":{"boundary_group":"china-provinces"}},
{"type":"Feature","geometry":{"type":"LineString","coordinates":[[115.466951,36.151584],[115.326591,36.099724],[115.2449,36.1894],[115.143,36.2105],[115.1192,36.2104],[115.101347,36.195949],[115.0534,36.1792],[115.02831,36.136832],[114.9837,36.0615],[114.934315,36.06075],[114.9113,36.0604],[114.8711,36.1463],[114.5853,36.1212],[114.3391,36.2557],[114.0561,36.2736],[114.0182,36.3549],[113.966938,36.336657],[113.9044,36.3144],[113.8064,36.3327],[113.749128,36.364297]]},"properties":{"boundary_group":"china-provinces"}},
{"type":"Feature","geometry":{"type":"LineString","coordinates":[[113.749128,36.364297],[113.728065,36.375917],[113.5791,36.4581],[113.5391,36.5354],[113.5821,36.5636],[113.455,36.7136],[113.6662,36.7929],[113.6844,36.8805],[113.7916,36.8824],[113.7662,37.1522],[114.005,37.4177],[114.1327,37.676],[113.984,37.7193],[114.0374,37.7864],[113.8587,38.0012],[113.8286,38.1626],[113.5383,38.2573],[113.517,38.3762],[113.5834,38.464],[113.5485,38.5555],[113.615,38.6505],[113.6943,38.6518],[113.7044,38.7109],[113.8242,38.7581],[113.8496,38.8183],[113.7665,38.8891],[113.7691,38.9899],[114.011,39.1237],[114.1155,39.0487],[114.3427,39.0756],[114.377,39.1727],[114.464,39.1926],[114.4198,39.2846],[114.5629,39.5732],[114.3981,39.6428],[114.3887,39.8658],[114.2092,39.8611],[114.2093,39.9165],[114.0406,39.9164],[114.0228,39.9842],[113.903,40.0109],[113.9719,40.1095],[114.0842,40.0737],[114.0604,40.1802],[114.4492,40.2544],[114.507379,40.321096],[114.2963,40.3695],[114.2769,40.5942],[114.122435,40.743431]]},"properties":{"boundary_group":"china-provinces"}},
{"type":"Feature","geometry":{"type":"LineString","coordinates":[[114.122435,40.743431],[114.0526,40.8109],[114.0392,40.8317],[114.0506,40.9234],[113.8182,41.0938],[114.0054,41.2316],[113.8954,41.3067],[113.9374,41.3891],[113.8646,41.4115],[114.0347,41.5298],[114.2243,41.5116],[114.1962,41.7913],[114.3489,41.948],[114.5042,41.9713],[114.4594,42.0358],[114.5059,42.1145],[114.8214,42.1458],[114.855,42.1001],[114.86948,42.052827],[114.9332,41.8448],[114.86,41.8027],[114.8992,41.6752],[114.8585,41.6008],[115.142097,41.596893],[115.1976,41.5693],[115.23958,41.595551],[115.354812,41.603535],[115.3084,41.701],[115.8236,41.9329],[115.9154,41.9487],[116.0101,41.7749],[116.0919,41.7742],[116.1199,41.8649],[116.1929,41.8621],[116.3292,42.0075],[116.4098,41.9923],[116.3937,41.9479],[116.492,41.9802],[116.5841,41.9238],[116.7831,41.9714],[116.8768,42.0155],[116.8858,42.1034],[116.7769,42.2057],[116.9162,42.1922],[116.8953,42.3877],[117.092,42.4816],[117.3797,42.4585],[117.4666,42.6002],[117.7957,42.6155],[118.0247,42.3819],[118.0539,42.281],[117.9655,42.2429],[118.1111,42.1638],[118.087,42.1063],[118.1537,42.0861],[118.1132,42.0346],[118.1882,42.03],[118.2364,42.0903],[118.2871,42.059],[118.2328,42.0067],[118.3072,41.9858],[118.2611,41.9192],[118.3395,41.8468],[118.2692,41.759],[118.2278,41.8098],[118.1392,41.7942],[118.1289,41.7299],[118.2309,41.5767],[118.3138,41.559],[118.2649,41.4655],[118.3537,41.4204],[118.3689,41.3112],[118.5243,41.3567],[118.7358,41.3218],[118.8138,41.3697],[118.8664,41.3027],[119.1947,41.2866],[119.2329,41.3108]]},"properties":{"boundary_group":"china-provinces"}},
{"type":"Feature","geometry":{"type":"LineString","coordinates":[[119.2329,41.3108],[119.241918,41.286945],[119.067,41.0736],[118.9322,41.0514],[119.0152,40.988],[118.8961,40.9594],[118.8403,40.8194],[118.843,40.7995],[119.0483,40.6635],[119.1745,40.6852],[119.1512,40.603],[119.2224,40.6056],[119.2544,40.5366],[119.5641,40.5328],[119.6209,40.2272],[119.7374,40.2059],[119.7304,40.1021],[119.8488,40.0318],[119.848,39.9898]]},"properties":{"boundary_group":"china-provinces"}},
{"type":"Feature","geometry":{"type":"LineString","coordinates":[[113.749128,36.364297],[113.6933,36.1837],[113.6491,36.1752],[113.7067,36.1333],[113.6529,36.04],[113.695,35.9907],[113.6286,35.9763],[113.6553,35.8344],[113.5742,35.7901],[113.6194,35.6333],[113.5432,35.633],[113.5031,35.5187],[113.3054,35.4827],[113.2962,35.4244],[113.1849,35.4488],[113.118,35.3306],[112.9905,35.3635],[112.9781,35.2857],[112.7073,35.1886],[112.6264,35.2713],[112.5545,35.2117],[112.0523,35.28],[112.0459,35.0456],[111.8089,35.0685],[111.6631,34.989],[111.5649,34.8447],[111.1473,34.8144],[110.9638,34.7012],[110.9126,34.725],[110.8251,34.6175],[110.7513,34.6548],[110.6557,34.5904],[110.3955,34.5935],[110.3717,34.6006]]},"properties":{"boundary_group":"china-provinces"}},
{"type":"Feature","geometry":{"type":"LineString","coordinates":[[110.3717,34.6006],[110.2343,34.6581],[110.2309,34.9243],[110.3328,35.0481],[110.4163,35.3487],[110.6082,35.5889],[110.444,36.1362],[110.4964,36.5335],[110.386,36.6864],[110.4465,36.7272],[110.3789,36.7747],[110.4199,36.9549],[110.3724,37.0179],[110.4439,37.0103],[110.4121,37.0336],[110.6817,37.2823],[110.6359,37.4281],[110.7459,37.4564],[110.7896,37.5573],[110.7904,37.6614],[110.6972,37.7112],[110.7487,37.7563],[110.5173,37.9535],[110.5004,38.1842],[110.577,38.3025],[110.666,38.315],[110.769739,38.405485],[110.891027,38.511278],[110.898487,38.531948],[110.8737,38.6231],[111,38.835],[110.995703,38.857631],[111.0089,38.883],[110.9741,38.9714],[111.1304,39.0616],[111.2414,39.2992],[111.1045,39.356]]},"properties":{"boundary_group":"china-provinces"}},
{"type":"Feature","geometry":{"type":"LineString","coordinates":[[111.1045,39.356],[111.124312,39.377471],[111.3523,39.431],[111.4244,39.5066],[111.432,39.6403],[111.4863,39.659],[111.773,39.5868],[111.9227,39.6082],[111.9663,39.7951],[112.3035,40.2551],[112.4561,40.2986],[112.7388,40.1621],[112.8461,40.2016],[112.8899,40.3263],[112.9681,40.3506],[113.251,40.4138],[113.3093,40.3186],[113.5293,40.3326],[113.7875,40.518],[113.8634,40.4483],[114.0688,40.5416],[114.0541,40.7183],[114.122435,40.743431]]},"properties":{"boundary_group":"china-provinces"}},
{"type":"Feature","geometry":{"type":"LineString","coordinates":[[111.1045,39.356],[111.079864,39.389095],[111.0538,39.4036],[111.048,39.4319],[111.111713,39.498799],[111.142,39.5306],[111.131774,39.558189],[110.878,39.5068],[110.6822,39.2676],[110.5946,39.2783],[110.5176,39.3819],[110.4238,39.3779],[110.3801,39.3091],[110.2694,39.4252],[110.124,39.4464],[110.2062,39.2814],[109.9921,39.2078],[109.8776,39.2637],[109.9549,39.191],[109.8914,39.1452],[109.9153,39.1023],[109.8513,39.123],[109.6674,38.9977],[109.6217,38.8571],[109.5037,38.83],[109.3294,38.6884],[109.3578,38.6237],[109.2644,38.6166],[109.0472,38.4325],[108.9387,38.179],[109.0621,38.0938],[109.0629,38.0218],[108.9392,37.9205],[108.8708,38.0289],[108.7922,38.0515],[108.7799,37.6877],[108.726165,37.682194],[108.6312,37.6531],[108.590148,37.668258],[108.381335,37.646864],[108.33,37.6316],[108.26763,37.635214],[108.051351,37.647746],[108.0106,37.6618],[107.9775,37.7866],[107.670332,37.869965]]},"properties":{"boundary_group":"china-provinces"}},
{"type":"Feature","geometry":{"type":"LineString","coordinates":[[107.670332,37.869965],[107.6451,37.8642],[107.4167,37.9388],[107.4355,37.9953],[107.185,38.1542],[106.9437,38.1302],[106.4791,38.3198],[106.534584,38.353251],[106.610698,38.435655],[106.6999,38.7141],[106.9537,38.9443],[106.961321,39.028947],[106.86,39.0914],[106.755645,39.362248],[106.5983,39.3746],[106.5038,39.2694],[106.2771,39.2735],[106.2833,39.1429],[106.1454,39.155],[106.0838,39.0048],[105.9679,38.9004],[105.9889,38.8547],[105.8928,38.7856],[105.8173,38.3606],[105.8623,38.2967],[105.761,38.1214],[105.8406,38.004],[105.7682,37.7944],[105.618,37.7773],[105.5969,37.7066],[105.1702,37.6634],[105.0214,37.5793],[104.4301,37.5146],[104.4046,37.4643],[104.303,37.438392]]},"properties":{"boundary_group":"china-provinces"}},
{"type":"Feature","geometry":{"type":"LineString","coordinates":[[104.303,37.438392],[104.2845,37.4273],[104.1795,37.4069],[103.6717,37.785],[103.3975,37.8614],[103.3478,38.0569],[103.5501,38.1595],[103.4118,38.4045],[103.8594,38.6463],[104.0321,38.8919],[104.1692,38.9391],[104.2002,39.084],[104.0443,39.2966],[104.0874,39.4193],[103.8478,39.4607],[103.358,39.3337],[103.0101,39.0985],[102.6023,39.1728],[102.4541,39.255],[101.8297,39.0914],[102.0715,38.8905],[101.7733,38.6588],[101.6772,38.6902],[101.6037,38.6481],[101.5578,38.713],[101.3058,38.7881],[101.331,38.8475],[101.2378,38.8588],[101.1965,38.9481],[101.2266,39.0212],[100.9615,38.9437],[100.9578,39.0057],[100.8288,39.0276],[100.8665,39.1097],[100.8298,39.4041],[100.4968,39.3998],[100.4978,39.4803],[100.3236,39.5083],[100.2624,39.6767],[99.9037,39.7874],[99.8114,39.865],[99.4409,39.8835],[99.8801,40.0301],[99.9868,40.1861],[100.1679,40.2766],[100.168,40.5402],[100.241,40.6176],[100.2357,40.7157],[100.1062,40.8741],[99.6716,40.9318],[99.5646,40.8457],[99.1732,40.8571],[99.1716,40.7461],[99.1005,40.6752],[98.9839,40.7818],[98.79,40.7045],[98.8022,40.6068],[98.702,40.6727],[98.6678,40.7719],[98.5695,40.746],[98.6274,40.6771],[98.3434,40.5673],[98.3323,40.9178],[97.9715,41.0967],[97.6156,41.4638],[97.8465,41.6551],[97.1717,42.7945]]},"properties":{"boundary_group":"china-provinces"}},
{"type":"Feature","geometry":{"type":"LineString","coordinates":[[121.4931,53.3338],[121.6742,53.2371],[121.6586,53.1685],[121.8134,53.0623],[121.5807,52.8198],[121.2022,52.589205],[121.638,52.4433],[121.7112,52.3156],[121.8339,52.2794],[121.936,52.2917],[122.1578,52.5147],[122.4358,52.3904],[122.4624,52.3001],[122.7837,52.2505],[122.7695,52.1774],[122.6296,52.1348],[122.6187,52.0725],[122.7115,51.9755],[122.742,51.7392],[122.8811,51.5478],[122.8511,51.4725],[122.9953,51.3095],[123.2756,51.2448],[123.5751,51.2916],[123.7154,51.3975],[123.9207,51.3003],[124.2062,51.3483],[124.3967,51.2718],[124.4938,51.3816],[124.6228,51.3237],[124.8665,51.3799],[124.9369,51.4424],[124.9171,51.4992],[125.0532,51.5331],[125.1129,51.661],[125.3593,51.6164],[125.7499,51.2259],[125.8331,51.2191],[125.8583,51.1438],[125.9762,51.1211],[126.0528,51.0356],[125.9875,50.8695],[125.9515,50.8989],[125.8267,50.7543],[125.7532,50.7516],[125.8173,50.7038],[125.78,50.6772],[125.817,50.5498],[125.5067,50.405],[125.531,50.3507],[125.4413,50.2144],[125.2523,50.1022],[125.3303,50.0547],[125.1759,49.951],[125.2378,49.8709],[125.1726,49.8281],[125.22,49.7893],[125.2124,49.6673],[125.1202,49.661],[125.2206,49.5937],[125.2627,49.4532],[125.2122,49.1874],[125.1117,49.1249],[124.8987,49.1812],[124.8023,49.114],[124.8159,49.0461],[124.5202,48.5585],[124.5088,48.3795],[124.5763,48.2978],[124.4951,48.1189],[124.4122,48.0871],[124.4714,48.1651],[124.3111,48.3444],[124.3265,48.4296],[124.2524,48.5345],[123.569,48.0408],[123.2933,47.9519],[123.1609,47.7816],[122.5687,47.5333],[122.5016,47.3998],[122.4117,47.3482],[122.6203,47.1155],[122.8472,47.0684],[122.7686,46.972],[122.8892,46.9584],[122.901,46.8056],[123.0004,46.7261],[123.1491,46.7401],[123.2282,46.8614],[123.3677,46.8355],[123.398,46.9335],[123.4199,46.9321],[123.5219,46.9545],[123.5016,46.8242],[123.5989,46.8896],[123.5979,46.688],[122.9967,46.5735],[123.0051,46.4331],[123.1591,46.2394]]},"properties":{"boundary_group":"china-provinces"}},
{"type":"Feature","geometry":{"type":"LineString","coordinates":[[123.1591,46.2394],[123.138,46.2275],[123.121319,46.205614],[123.055333,46.119036],[123.0393,46.098],[122.7871,46.0713],[122.8212,45.8963],[122.7361,45.7031],[122.5362,45.7721],[122.4399,45.9148],[122.356,45.9154],[122.3629,45.86],[122.2568,45.793],[121.9975,45.9805],[121.8371,46.0227],[121.7559,45.997],[121.8112,45.8737],[121.639,45.753],[121.7508,45.6888],[121.9393,45.7116],[121.9966,45.5059],[122.1589,45.4419],[122.1413,45.2934],[122.2332,45.2743],[122.2243,45.2048],[122.1038,45.1399],[122.039,44.8974],[122.0939,44.7803],[122.1633,44.7682],[122.0929,44.7427],[122.1555,44.7262],[122.0971,44.6719],[122.1257,44.5754],[122.2804,44.4758],[122.2658,44.2536],[122.67,44.2838],[122.7549,44.3677],[123.1185,44.5075],[123.1255,44.3602],[123.3799,44.1596],[123.32,44.0434],[123.4608,43.857],[123.5323,43.6401],[123.5042,43.5909],[123.4168,43.6077],[123.446,43.5431],[123.2984,43.5482],[123.4135,43.4074],[123.4805,43.4429],[123.689869,43.371061]]},"properties":{"boundary_group":"china-provinces"}},
{"type":"Feature","geometry":{"type":"LineString","coordinates":[[123.689869,43.371061],[123.681614,43.345379],[123.709,43.3321],[123.5732,43.0081],[123.4656,43.0402],[123.2528,42.9908],[123.1781,42.9235],[123.1647,42.8497],[123.2123,42.8248],[122.8819,42.768],[122.8434,42.7154],[122.816844,42.723461],[122.531205,42.810172],[122.4313,42.8405],[122.387817,42.829076],[122.3449,42.8178],[122.4558,42.7556],[122.3903,42.6818],[122.1982,42.729],[122.194,42.6867],[121.9522,42.6953],[121.8604,42.5275],[121.6965,42.4374],[121.6002,42.5143],[121.4173,42.483],[121.0624,42.2501],[120.928,42.2777],[120.4858,42.1175],[120.4508,42.0137],[120.2661,41.923],[120.2908,41.8875],[120.183,41.8444],[120.0942,41.6961],[120.0314,41.7056],[120.0362,41.8214],[119.8359,42.0992],[119.8401,42.2091],[119.6117,42.2494],[119.4959,42.3868],[119.232,42.1993],[119.3773,42.0879],[119.2838,41.784],[119.3066,41.6379],[119.394807,41.580457],[119.3568,41.5643],[119.3993,41.4789],[119.310731,41.370874],[119.3188,41.3281],[119.259366,41.308225],[119.2329,41.3108]]},"properties":{"boundary_group":"china-provinces"}},
{"type":"Feature","geometry":{"type":"LineString","coordinates":[[123.689869,43.371061],[123.7038,43.4144],[123.728891,43.435185],[123.7443,43.4692],[123.76949,43.468818],[123.7918,43.4873],[123.813415,43.468153],[123.8433,43.4677],[123.863,43.424229],[123.8917,43.3609],[124.000128,43.302758],[124.0274,43.2786],[124.057106,43.272205],[124.1084,43.2447],[124.275,43.2253],[124.2779,43.1636],[124.4196,43.0734],[124.3273,42.9949],[124.4359,42.9565],[124.3603,42.8893],[124.4455,42.8237],[124.486202,42.847594],[124.6802,43.0481],[124.8854,43.1306],[124.8342,43.0246],[124.8666,42.7872],[124.9696,42.7997],[124.9616,42.678],[125.091,42.6196],[125.0721,42.5041],[125.1911,42.4054],[125.1693,42.3057],[125.2927,42.2876],[125.2998,42.1438],[125.3625,42.1803],[125.4841,42.1339],[125.2859,41.9575],[125.3452,41.9257],[125.2903,41.8841],[125.3125,41.6796],[125.4444,41.6714],[125.5425,41.3991],[125.7852,41.1643],[125.571,40.9016],[125.6552,40.9124],[125.6948,40.841]]},"properties":{"boundary_group":"china-provinces"}},
{"type":"Feature","geometry":{"type":"LineString","coordinates":[[123.1591,46.2394],[123.333181,46.234757],[123.3743,46.2228],[123.450927,46.231617],[123.5678,46.2285],[123.9505,46.2891],[124.033,46.0198],[123.9597,45.9398],[124.0645,45.8415],[123.9946,45.7672],[124.1259,45.6906],[124.1392,45.6211],[124.2182,45.6318],[124.2759,45.5396],[124.3492,45.5439],[124.3718,45.4497],[124.3938,45.4377],[124.42258,45.437664],[124.646341,45.437388],[124.8802,45.4371],[124.9102,45.5397],[125.027,45.4858],[125.068,45.3782],[125.3501,45.3884],[125.4174,45.4869],[125.6328,45.5199],[125.6978,45.4976],[125.6883,45.3522],[125.7502,45.2806],[125.9897,45.1607],[126.2295,45.1377],[126.5747,45.2492],[126.7841,45.135],[126.9509,45.1375],[127.0867,44.9456],[126.9782,44.8229],[127.0429,44.5644],[127.2065,44.6455],[127.5519,44.5714],[127.4592,44.5143],[127.4772,44.3997],[127.6181,44.2756],[127.6197,44.1865],[127.7132,44.2003],[127.7227,44.097],[127.7773,44.0697],[128.0827,44.1291],[128.0571,44.2582],[128.095,44.288],[128.0437,44.3469],[128.1593,44.3413],[128.2057,44.4302],[128.366,44.512],[128.4752,44.3735],[128.4654,44.1586],[128.6304,43.889],[128.7545,43.8557],[128.7223,43.7354],[128.8699,43.5415],[129.0092,43.5217],[129.2164,43.5841],[129.2053,43.7825],[129.2492,43.8172],[129.7323,43.8801],[129.778,43.9622],[129.9294,44.0254],[129.9932,43.996],[130.0591,43.8323],[130.3458,44.0479],[130.4097,43.6475],[130.6119,43.6222],[130.8543,43.4357],[130.9939,43.5056],[131.0195,43.506],[131.1349,43.423],[131.2896,43.4916]]},"properties":{"boundary_group":"china-provinces"}},
{"type":"Feature","geometry":{"type":"LineString","coordinates":[[121.262189,30.702021],[121.2655,30.7338],[121.2145,30.7882],[121.1225,30.7812],[121.1158,30.8517],[120.9857,30.8257],[121.0136,30.885],[120.985292,30.954228],[120.9539,31.031],[120.888298,31.015484]]},"properties":{"boundary_group":"china-provinces"}},
{"type":"Feature","geometry":{"type":"LineString","coordinates":[[120.888298,31.015484],[120.885472,31.042368],[120.878485,31.108855],[121.064,31.1517],[121.0577,31.27],[121.1565,31.284],[121.102,31.3665],[121.1429,31.4453],[121.3822,31.5471],[121.097,31.7651],[121.1711,31.8194],[121.3014,31.8725],[121.446,31.7634],[121.8748,31.6352]]},"properties":{"boundary_group":"china-provinces"}},
{"type":"Feature","geometry":{"type":"LineString","coordinates":[[120.420754,27.165206],[120.4027,27.2047],[120.350285,27.379518],[120.3361,27.4019],[120.2686,27.391],[120.2482,27.4419],[120.1306,27.4255],[120.0461,27.3404],[119.9955,27.3826],[119.9322,27.3197],[119.7638,27.3119],[119.6283,27.6731],[119.4966,27.6527],[119.465,27.5278],[119.3408,27.5242],[119.2629,27.4244],[118.9859,27.5065],[118.921383,27.475799],[118.8534,27.5222],[118.8964,27.7126],[118.7129,28.0354],[118.7987,28.1211],[118.7562,28.1737],[118.809,28.2326],[118.7292,28.2574],[118.7176,28.317],[118.483752,28.264726],[118.4389,28.2547]]},"properties":{"boundary_group":"china-provinces"}},
{"type":"Feature","geometry":{"type":"LineString","coordinates":[[118.4389,28.2547],[118.447279,28.309335],[118.4672,28.3214],[118.454693,28.357681],[118.4731,28.4777],[118.4117,28.4984],[118.4276,28.667],[118.377,28.7923],[118.2917,28.8361],[118.2665,28.9203],[118.1964,28.9069],[118.223,28.9453],[118.0946,28.9931],[118.0308,29.1014],[118.038328,29.136034],[118.0726,29.2937],[118.1628,29.2839],[118.1856,29.3932]]},"properties":{"boundary_group":"china-provinces"}},
{"type":"Feature","geometry":{"type":"LineString","coordinates":[[118.1856,29.3932],[118.3099,29.4257],[118.3061,29.5003],[118.4737,29.5116],[118.618075,29.660732],[118.744348,29.791164],[118.8865,29.938],[118.894,30.1449],[118.8435,30.1658],[118.9223,30.2039],[118.8758,30.3176],[118.9508,30.3607],[119.2316,30.2955],[119.2442,30.344],[119.3972,30.3719],[119.3255,30.5358],[119.2414,30.5282],[119.2342,30.6085],[119.4803,30.7036],[119.4773,30.7771],[119.5737,30.8314],[119.5481,30.9029],[119.6258,31.0097],[119.6178,31.1306]]},"properties":{"boundary_group":"china-provinces"}},
{"type":"Feature","geometry":{"type":"LineString","coordinates":[[119.6178,31.1306],[119.6366,31.1503],[119.9083,31.1708],[119.9896,31.0344],[120.1274,30.9459],[120.3655,30.9503],[120.361,30.8823],[120.4323,30.9239],[120.4993,30.7604],[120.7088,30.8878],[120.685,30.9674],[120.888298,31.015484]]},"properties":{"boundary_group":"china-provinces"}},
{"type":"Feature","geometry":{"type":"LineString","coordinates":[[118.1856,29.3932],[118.0222,29.5764],[117.7241,29.5494],[117.6429,29.6172],[117.5342,29.5996],[117.4456,29.6934],[117.4247,29.845],[117.2701,29.8277],[117.2031,29.9326],[117.0666,29.8299],[117.1337,29.7885],[117.1091,29.71],[116.8323,29.5719],[116.715,29.5693],[116.6441,29.6987],[116.869515,29.918719],[116.886613,29.953548],[116.739292,30.027265],[116.6359,30.079],[116.6121,30.0753],[116.5416,29.9076],[116.258,29.7837],[116.1582,29.8319],[116.1329,29.8267]]},"properties":{"boundary_group":"china-provinces"}},
{"type":"Feature","geometry":{"type":"LineString","coordinates":[[116.1329,29.8267],[116.0605,30.2123],[115.9057,30.3076],[115.9086,30.5199],[115.756,30.6899],[115.7815,30.7585],[115.863,30.7753],[115.8643,30.8714],[116.0687,30.9578],[115.994893,31.030941],[115.8683,31.1507],[115.7718,31.1056],[115.6401,31.2221],[115.5793,31.1447],[115.4376,31.3475],[115.3724,31.35],[115.3872,31.3934],[115.3693,31.4066]]},"properties":{"boundary_group":"china-provinces"}},
{"type":"Feature","geometry":{"type":"LineString","coordinates":[[115.3693,31.4066],[115.3692,31.5013],[115.4896,31.675],[115.510492,31.686884],[115.677,31.7816],[115.9054,31.7952],[115.9339,32.1642],[115.8393,32.5068],[115.7826,32.4705],[115.6991,32.4975],[115.6608,32.4112],[115.5606,32.4064],[115.4059,32.5773],[115.1956,32.594],[115.1945,32.8571],[114.8805,32.9776],[114.9273,33.0273],[114.8939,33.1285],[114.9723,33.1488],[114.9899,33.0997],[115.1135,33.0771],[115.2976,33.1502],[115.3557,33.3],[115.3083,33.3754],[115.3404,33.5054],[115.6304,33.5861],[115.5585,33.776],[115.6083,33.7775],[115.6298,33.8667],[115.5408,33.8768],[115.6498,34.0581],[115.8088,34.0662],[115.8462,34.0061],[115.9801,33.9924],[115.98,33.9028],[116.1505,33.7096],[116.4319,33.801],[116.55299,33.905855],[116.589414,33.905904],[116.6376,33.8851],[116.6448,33.9749],[116.527,34.1225],[116.5797,34.2767],[116.3665,34.2688],[116.2015,34.3834],[116.153,34.451],[116.19183,34.566343]]},"properties":{"boundary_group":"china-provinces"}},
{"type":"Feature","geometry":{"type":"LineString","coordinates":[[116.19183,34.566343],[116.2435,34.5534],[116.357073,34.628635],[116.36727,34.663847]]},"properties":{"boundary_group":"china-provinces"}},
{"type":"Feature","geometry":{"type":"LineString","coordinates":[[116.36727,34.663847],[116.4249,34.6523],[116.5666,34.4874],[116.7552,34.4639],[116.8284,34.3859],[116.9654,34.3927],[116.9696,34.2888],[117.0438,34.245],[117.02,34.1685],[117.1436,34.0799],[117.3525,34.0887],[117.4086,34.0224],[117.5038,34.0623],[117.5588,33.9797],[117.6177,34.0343],[117.7044,33.8832],[117.7533,33.8864],[117.7326,33.7269],[118.1804,33.7461],[118.1013,33.4768],[118.0444,33.4936],[117.9357,33.2358],[118.0323,33.1371],[118.2099,33.1957],[118.2059,33.0632],[118.304,32.9611],[118.2225,32.9252],[118.2389,32.8552],[118.3648,32.7207],[118.7518,32.7422],[118.7354,32.8473],[118.8048,32.8557],[118.8434,32.9601],[118.9966,32.9634],[119.0947,32.8335],[119.1795,32.8278],[119.2233,32.6056],[119.0858,32.4586],[118.88,32.5921],[118.5643,32.5881],[118.5932,32.4789],[118.6859,32.4751],[118.700411,32.334923],[118.6391,32.2123],[118.5043,32.1967],[118.4956,32.1243],[118.3896,32.0787],[118.362,31.9397],[118.4731,31.8852],[118.478,31.7831],[118.5378,31.7331],[118.6854,31.723],[118.6557,31.642],[118.769,31.6841],[118.842292,31.626667],[118.8764,31.45],[118.790521,31.38307],[118.738643,31.342638],[118.7146,31.3239],[118.729635,31.305495],[118.7243,31.2835],[118.79,31.2316],[119.0774,31.2341],[119.1003,31.2379],[119.1775,31.3032],[119.296218,31.275603],[119.3414,31.2651],[119.38429,31.190177],[119.441209,31.16883],[119.6178,31.1306]]},"properties":{"boundary_group":"china-provinces"}},
{"type":"Feature","geometry":{"type":"LineString","coordinates":[[117.1887,23.6199],[117.0454,23.7027],[117.0286,23.828],[116.999945,23.842076],[116.969345,23.935902],[116.977,23.9981],[116.9261,24.0685],[116.9933,24.185],[116.9286,24.2232],[116.8394,24.4884],[116.7522,24.5503],[116.7971,24.6805],[116.525,24.6077],[116.4825,24.7212],[116.37,24.8085],[116.3915,24.8806],[116.2471,24.7962],[116.187,24.8814],[116.0882,24.8407],[115.8875,24.9408]]},"properties":{"boundary_group":"china-provinces"}},
{"type":"Feature","geometry":{"type":"LineString","coordinates":[[115.8875,24.9408],[115.8652,24.9686],[115.9194,24.9668],[115.899489,25.039288],[115.8515,25.214],[115.9988,25.3104],[116.0544,25.6899],[116.1732,25.7569],[116.1252,25.8554],[116.3623,25.963],[116.4865,26.1236],[116.469,26.1779],[116.3864,26.1751],[116.3917,26.2752],[116.5121,26.4137],[116.5955,26.3747],[116.623754,26.447298],[116.630198,26.468568],[116.5361,26.5674],[116.53946,26.669624],[116.542022,26.747554],[116.5599,26.7646],[116.5451,26.8412],[116.6936,26.9921],[116.9348,27.0219],[117.129705,27.237303],[117.155838,27.27741],[117.0935,27.3415],[117.1278,27.4279],[117.097557,27.518969],[117.0981,27.5427],[117.0835,27.5613],[117.0163,27.5585],[116.9985,27.6307],[117.0146,27.6557],[117.0899,27.6311],[117.1122,27.6976],[117.1997,27.6871],[117.245527,27.728667],[117.263568,27.745031],[117.3019,27.7798],[117.289049,27.825307],[117.302615,27.868049],[117.3384,27.8594],[117.5155,27.9862],[117.597,27.872],[117.737,27.8044],[117.8509,27.949],[118.0832,27.9672],[118.1302,28.0567],[118.3509,28.0939],[118.3705,28.1898],[118.3072,28.2245],[118.3678,28.2691],[118.4389,28.2547]]},"properties":{"boundary_group":"china-provinces"}},
{"type":"Feature","geometry":{"type":"LineString","coordinates":[[115.8875,24.9408],[115.8874,24.8721],[115.8158,24.9098],[115.759,24.7956],[115.764893,24.772668],[115.798324,24.642565],[115.818068,24.565727],[115.6796,24.5505],[115.4031,24.7976],[115.3555,24.7375],[115.2757,24.7574],[115.1001,24.6701],[115.0687,24.7071],[114.908,24.6683],[114.8622,24.5654],[114.7451,24.6206],[114.7012,24.5309],[114.6594,24.5867],[114.424,24.4877],[114.3586,24.5882],[114.1707,24.6484],[114.1639,24.694],[114.3281,24.7495],[114.3908,24.9529],[114.414787,24.971537],[114.5567,25.0818],[114.7254,25.1186],[114.6744,25.1981],[114.73183,25.268996],[114.5335,25.4218],[114.3755,25.3187],[114.1345,25.3148],[114.035,25.2539],[114.0379,25.3938],[113.9563,25.4568]]},"properties":{"boundary_group":"china-provinces"}},
{"type":"Feature","geometry":{"type":"LineString","coordinates":[[113.9563,25.4568],[113.960885,25.5093],[113.975611,25.540955],[113.9086,25.7299],[114.0224,25.8968],[114.0027,26.0167],[114.2254,26.1545],[114.200322,26.18397],[114.1723,26.2169],[113.9376,26.1681],[114.0833,26.4135],[114.1025,26.579],[113.8609,26.6563],[113.83,26.8002],[113.9218,26.9516],[113.7638,27.1218],[113.8673,27.3703],[113.6137,27.3523],[113.6229,27.5223],[113.5755,27.5478],[113.7595,27.8056],[113.7438,27.9337],[114.0202,28.0344],[113.9873,28.1616],[114.0988,28.185],[114.2565,28.3551],[114.1804,28.4364],[114.2133,28.487],[114.0803,28.5601],[114.1488,28.8338],[114.0729,28.8353],[113.951805,29.023451],[113.9395,29.0476],[113.917373,29.058103]]},"properties":{"boundary_group":"china-provinces"}},
{"type":"Feature","geometry":{"type":"LineString","coordinates":[[113.917373,29.058103],[113.9481,29.1004],[114.0858,29.2149],[114.2495,29.2387],[114.2689,29.3569],[114.5089,29.3259],[114.6544,29.3937],[114.8899,29.4],[114.9444,29.4663],[114.8567,29.4799],[114.8907,29.5305],[114.9572,29.5057],[114.9928,29.5734],[115.1555,29.5109],[115.1724,29.5927],[115.1292,29.5923],[115.1103,29.6849],[115.2829,29.6222],[115.4091,29.681],[115.506,29.8423],[115.6749,29.8508],[115.9274,29.7208],[116.1329,29.8267]]},"properties":{"boundary_group":"china-provinces"}},
{"type":"Feature","geometry":{"type":"LineString","coordinates":[[119.2958,35.0908],[119.262376,35.111922],[119.2382,35.1272],[119.190236,35.097678],[118.8632,35.0331],[118.8529,34.939],[118.7047,34.7514],[118.7718,34.722],[118.6744,34.6795],[118.5256,34.7149],[118.4176,34.6092],[118.4037,34.4347],[118.1996,34.3774],[118.1216,34.4862],[118.1839,34.5448],[118.0723,34.5712],[118.0958,34.6564],[117.9581,34.6802],[117.7925,34.6545],[117.7914,34.5227],[117.6787,34.548],[117.5833,34.4633],[117.4822,34.4708],[117.3693,34.5848],[117.2756,34.5647],[117.235,34.4455],[117.149,34.5057],[117.1227,34.6447],[117.052,34.6547],[117.0746,34.7016],[116.9629,34.8702],[116.7809,34.9758],[116.7759,34.9175],[116.4394,34.8961],[116.36727,34.663847]]},"properties":{"boundary_group":"china-provinces"}},
{"type":"Feature","geometry":{"type":"LineString","coordinates":[[116.19183,34.566343],[115.9952,34.6156],[115.8232,34.5593],[115.529,34.5766],[115.4394,34.6629],[115.4258,34.8048],[115.2405,34.8438],[115.2495,34.9102],[115.1833,34.9156],[115.2193,34.9542],[115.1122,35.0069],[114.9126,34.97],[114.8219,35.0109],[114.8119,35.0712],[114.868729,35.101542],[114.8428,35.1698],[114.9246,35.1954],[115.0114,35.3618],[115.0266,35.3752],[115.075384,35.386732],[115.236,35.4247],[115.3499,35.4937],[115.3401,35.5473],[115.5054,35.7249],[115.6878,35.7542],[115.731,35.8327],[115.8578,35.8593],[115.9064,35.9605],[116.0392,35.9674],[116.092,36.113],[115.4966,35.8887],[115.426674,35.835142],[115.355924,35.805595],[115.3493,35.9678],[115.4414,36.009],[115.4765,36.1237],[115.466951,36.151584]]},"properties":{"boundary_group":"china-provinces"}},
{"type":"Feature","geometry":{"type":"LineString","coordinates":[[115.3693,31.4066],[115.2152,31.4266],[115.2253,31.549],[115.167,31.6047],[115.0904,31.5101],[114.8309,31.4595],[114.6399,31.5835],[114.5544,31.5647],[114.5795,31.7665],[114.2974,31.7563],[114.1761,31.8562],[113.984,31.7512],[113.9526,31.8592],[113.8341,31.8548],[113.8084,31.9675],[113.7503,31.9959],[113.7862,32.0364],[113.7194,32.1275],[113.7773,32.1884],[113.7323,32.2564],[113.764,32.359],[113.7126,32.4193],[113.4217,32.2713],[113.2065,32.4342],[113.1502,32.3819],[113.025,32.4278],[112.9845,32.3707],[112.8593,32.3961],[112.7445,32.3461],[112.5407,32.4125],[112.3181,32.3286],[111.7096,32.6086],[111.5559,32.5967],[111.4261,32.7282],[111.4585,32.7753],[111.4089,32.7563],[111.2898,32.8931],[111.2389,32.8843],[111.2698,32.9874],[111.1534,33.0385],[111.1745,33.1162],[111.0782,33.1856],[111.0317,33.1583],[111.0553,33.1948],[110.9882,33.254]]},"properties":{"boundary_group":"china-provinces"}},
{"type":"Feature","geometry":{"type":"LineString","coordinates":[[110.9882,33.254],[110.9756,33.272],[111.0294,33.3351],[111,33.5767],[110.8323,33.6671],[110.7761,33.794],[110.5822,33.8879],[110.6717,33.9499],[110.5801,34.0253],[110.6378,34.1621],[110.4223,34.276],[110.5014,34.341],[110.3584,34.5111],[110.3717,34.6006]]},"properties":{"boundary_group":"china-provinces"}},
{"type":"Feature","geometry":{"type":"LineString","coordinates":[[113.917373,29.058103],[113.8131,29.1076],[113.7405,29.0591],[113.7168,29.1089],[113.6794,29.0853],[113.6871,29.2292],[113.6012,29.2706],[113.7496,29.4515],[113.6253,29.5255],[113.7357,29.5933],[113.659,29.6865],[113.5416,29.6829],[113.5321,29.701],[113.5656,29.8504],[113.0781,29.4356],[113.0541,29.5247],[112.9386,29.4843],[112.9068,29.608],[112.960425,29.68418],[112.9309,29.6775],[112.9187,29.7804],[112.9097,29.8034],[112.8865,29.7921],[112.8656,29.7906],[112.673,29.5933],[112.434,29.6361],[112.2727,29.5109],[112.2975,29.5883],[112.2358,29.6546],[112.0595,29.6851],[112.0513,29.7654],[111.7813,29.9163],[111.3996,29.9134],[111.2383,30.0429],[110.9293,30.0648],[110.8415,30.1284],[110.8144,30.1281],[110.7397,30.113],[110.720926,30.043563],[110.702,30.0357],[110.633411,30.046595],[110.5188,30.0648],[110.4947,30.0514],[110.487,30.0211],[110.5454,29.9827],[110.5015,29.9215],[110.6376,29.7788],[110.553027,29.719294],[110.4625,29.7157],[110.369,29.6364],[110.1244,29.7925],[109.8145,29.7761],[109.770967,29.754138],[109.7477,29.7424],[109.7016,29.6096],[109.509,29.6261],[109.4277,29.5331],[109.333,29.3674],[109.3531,29.2951],[109.2598,29.2268],[109.2738,29.1243],[109.2215,29.1163]]},"properties":{"boundary_group":"china-provinces"}},
{"type":"Feature","geometry":{"type":"LineString","coordinates":[[109.2215,29.1163],[109.161176,29.162796],[109.136508,29.181043],[109.1171,29.1954],[109.123287,29.221694],[109.065,29.4009],[108.9156,29.3292],[108.9386,29.4148],[108.8604,29.4741],[108.9103,29.5741],[108.8814,29.6384],[108.7061,29.682],[108.6566,29.856],[108.5927,29.8637],[108.5018,29.7162],[108.3625,29.8227],[108.5147,29.8768],[108.5794,30.2581],[108.3957,30.3941],[108.4023,30.418756],[108.4093,30.4782],[108.4226,30.4946],[108.576,30.4828],[108.6563,30.591],[108.796947,30.498629],[108.8258,30.4985],[109.0376,30.6579],[109.1101,30.6439],[109.0761,30.6025],[109.1459,30.5299],[109.3197,30.6223],[109.3463,30.4896],[109.4572,30.6211],[109.5714,30.6518],[109.6559,30.7645],[109.8887,30.9024],[110.0033,30.8869],[110.0784,30.805],[110.168,30.9818],[110.1152,31.0827],[110.1955,31.16],[110.1358,31.3926],[109.9417,31.4704],[109.9643,31.5104],[109.7306,31.5488],[109.73,31.6967],[109.6008,31.7159],[109.5796,31.7285]]},"properties":{"boundary_group":"china-provinces"}},
{"type":"Feature","geometry":{"type":"LineString","coordinates":[[109.5796,31.7285],[109.6351,31.8183],[109.5787,31.8961],[109.6248,31.946],[109.5814,32.0305],[109.6036,32.2047],[109.4876,32.2955],[109.547,32.4825],[109.6347,32.5403],[109.6138,32.5891],[109.691444,32.589956],[110.0294,32.545],[110.0866,32.6214],[110.1482,32.5915],[110.191446,32.629198],[110.187897,32.66439],[110.1584,32.7637],[110.127163,32.786237],[110.1051,32.8305],[110.028542,32.857389],[109.9875,32.887],[109.945472,32.886566],[109.8648,32.9149],[109.7842,32.8849],[109.7966,33.0685],[109.4488,33.1711],[109.62,33.2729],[110.1577,33.2127],[110.2259,33.1601],[110.4672,33.175],[110.5274,33.2567],[110.7053,33.096],[110.8318,33.207],[110.9882,33.254]]},"properties":{"boundary_group":"china-provinces"}},
{"type":"Feature","geometry":{"type":"LineString","coordinates":[[113.9563,25.4568],[113.9346,25.4528],[113.905786,25.442082],[113.882,25.4403],[113.8167,25.3334],[113.7377,25.366],[113.5729,25.3189],[113.543509,25.33636],[113.298388,25.481976],[113.255547,25.507425],[113.2364,25.5188],[113.212767,25.502536],[113.134067,25.448376],[113.0161,25.3478],[112.9173,25.2992],[112.8466,25.3351],[112.8679,25.2501],[112.9876,25.2502],[113.0289,25.2],[112.9602,25.1455],[113.0106,25.0846],[112.992243,25.011931],[112.9695,24.9219],[112.90842,24.915517],[112.8678,24.9002],[112.7743,24.9015],[112.6561,25.1357],[112.1811,25.187],[112.1148,24.97],[112.165,24.8657],[112.0257,24.747],[112.0048,24.7326]]},"properties":{"boundary_group":"china-provinces"}},
{"type":"Feature","geometry":{"type":"LineString","coordinates":[[112.0048,24.7326],[111.7015,24.7925],[111.5663,24.6476],[111.4478,24.6656],[111.4815,24.8038],[111.4286,24.9704],[111.4676,25.018],[111.3831,25.1317],[111.332,25.1028],[111.2619,25.149],[111.1027,25.0412],[111.0921,24.9421],[111.0408,24.9295],[110.9866,24.9285],[110.9459,25.0456],[110.9942,25.1663],[111.1074,25.2192],[111.0966,25.2832],[111.2871,25.4388],[111.3377,25.6094],[111.3037,25.7241],[111.4347,25.7729],[111.4197,25.8318],[111.4881,25.8712],[111.3358,25.911],[111.2453,25.87],[111.1906,25.9593],[111.2596,26.0647],[111.276154,26.260983],[111.218648,26.284772],[110.9679,26.3885],[110.9243,26.259],[110.7589,26.2507],[110.7434,26.3196],[110.6096,26.3367],[110.282783,25.987143],[110.1852,26.0705],[110.1538,26.0208],[110.0644,26.0448],[110.0933,26.1717],[109.9637,26.2033],[109.8675,26.0346],[109.7861,26.0178],[109.8261,25.911],[109.809289,25.897617],[109.792381,25.884157],[109.7751,25.8704],[109.723063,25.882577],[109.6751,25.8938],[109.70848,25.960036],[109.718451,26.00008],[109.677262,26.028891],[109.6498,26.0481],[109.6281,26.0554],[109.5327,25.9981],[109.472191,26.024969]]},"properties":{"boundary_group":"china-provinces"}},
{"type":"Feature","geometry":{"type":"LineString","coordinates":[[109.472191,26.024969],[109.46555,26.045239],[109.4478,26.0577],[109.5097,26.1324],[109.4319,26.2477],[109.4637,26.3164],[109.3366,26.2667],[109.2756,26.3013],[109.285138,26.318916],[109.2683,26.336],[109.4069,26.5438],[109.2838,26.697],[109.5182,26.7526],[109.5095,26.8839],[109.464908,26.888276],[109.522186,26.932283],[109.5521,26.9462],[109.547278,26.968037],[109.4631,27.0677],[109.454,27.0856],[109.4683,27.1365],[109.3892,27.1592],[109.2379,27.1525],[109.1587,27.0683],[109.0961,27.0743],[109.1217,27.128],[109.0218,27.1079],[108.8814,27.005],[108.7897,27.0908],[108.8817,27.1127],[108.9021,27.2128],[109.1001,27.3403],[109.1365,27.4511],[109.2895,27.4244],[109.2923,27.4801],[109.4583,27.57],[109.4683,27.6804],[109.331,27.7777],[109.296,27.9591],[109.3739,28.0376],[109.2924,28.0341],[109.3928,28.2712],[109.2681,28.3125],[109.256,28.4675]]},"properties":{"boundary_group":"china-provinces"}},
{"type":"Feature","geometry":{"type":"LineString","coordinates":[[109.256,28.4675],[109.2698,28.4979],[109.3164,28.5887],[109.2951,28.6298],[109.1764,28.6215],[109.285901,28.732283],[109.277822,28.754248],[109.2355,28.7816],[109.2305,28.8829],[109.3165,29.0479],[109.2215,29.1163]]},"properties":{"boundary_group":"china-provinces"}},
{"type":"Feature","geometry":{"type":"LineString","coordinates":[[114.2198,22.542052],[114.0566,22.5043]]},"properties":{"boundary_group":"china-provinces"}},
{"type":"Feature","geometry":{"type":"LineString","coordinates":[[109.7618,21.6702],[109.8944,21.6525],[109.983,21.8824],[110.3873,21.8964],[110.3439,22.1987],[110.4269,22.2098],[110.4873,22.1451],[110.556,22.1994],[110.6251,22.1519],[110.6743,22.1758],[110.6494,22.2427],[110.775252,22.292275],[110.6782,22.477],[110.7391,22.4698],[110.7557,22.585],[111.0505,22.6507],[111.0563,22.7342],[111.1973,22.7434],[111.235927,22.772959],[111.2859,22.8112],[111.306902,22.844694],[111.3543,22.8926],[111.4288,23.0391],[111.3685,23.0925],[111.3439,23.2746],[111.3944,23.4718],[111.4554,23.5029],[111.4818,23.6292],[111.6107,23.6418],[111.6602,23.7027],[111.6123,23.7363],[111.6499,23.8364],[111.8038,23.8123],[111.8172,23.914],[111.9363,23.9852],[111.882791,24.198889],[111.947811,24.253118],[111.9846,24.2635],[112.016761,24.310624],[112.04756,24.355754],[111.942078,24.65741],[112.0048,24.7326]]},"properties":{"boundary_group":"china-provinces"}},
{"type":"Feature","geometry":{"type":"LineString","coordinates":[[105.539774,23.192071],[105.575031,23.284597],[105.5831,23.3104],[105.609809,23.315574],[105.6977,23.3326],[105.6471,23.4001],[105.8377,23.5291],[105.8646,23.536],[105.901397,23.514275],[105.994243,23.459459],[106.1378,23.5769],[106.1331,23.8003],[106.1963,23.8695],[106.0455,24.0908],[106.020119,24.09739],[105.9963,24.1282],[105.964166,24.111917],[105.901076,24.079949],[105.7952,24.0263],[105.7573,24.0746],[105.6438,24.0339],[105.6232,24.1316],[105.5933,24.1411],[105.5246,24.1294],[105.475626,24.029683],[105.3125,24.1204],[105.2799,24.0664],[105.2561,24.0637],[105.235119,24.088457],[105.1995,24.106],[105.1744,24.1601],[105.2418,24.2076],[105.1748,24.2556],[105.1965,24.3316],[105.1055,24.4164],[105.081955,24.419525],[105.0502,24.4439],[105.013518,24.428609],[104.966,24.4088],[104.733584,24.44287],[104.7136,24.4458],[104.7003,24.4224],[104.6971,24.3202],[104.6068,24.3792],[104.594209,24.406185],[104.5772,24.4204],[104.4777,24.6559],[104.5276,24.7348]]},"properties":{"boundary_group":"china-provinces"}},
{"type":"Feature","geometry":{"type":"LineString","coordinates":[[104.5276,24.7348],[104.548032,24.724152],[104.7406,24.6238],[104.9013,24.7582],[105.0313,24.7912],[105.0378,24.8775],[105.208,24.9986],[105.2615,24.9345],[105.4382,24.9258],[105.4963,24.8108],[105.7977,24.7053],[105.9387,24.7282],[106.0195,24.6356],[106.1941,24.8178],[106.1491,24.9636],[106.4389,25.0219],[106.6452,25.1703],[106.9927,25.2432],[106.9618,25.4427],[107.0615,25.5604],[107.2031,25.6133],[107.3175,25.5014],[107.3059,25.4121],[107.4185,25.3887],[107.4675,25.2171],[107.6624,25.322],[107.6836,25.2005],[107.7589,25.2349],[107.7587,25.1273],[107.783083,25.124676],[107.8349,25.1191],[108.1125,25.2145],[108.1378,25.3914],[108.1881,25.4045],[108.1547,25.4437],[108.2465,25.4321],[108.3035,25.5278],[108.3303,25.5381],[108.448066,25.446437],[108.6213,25.3116],[108.584,25.4254],[108.6312,25.5227],[108.6835,25.5211],[108.6829,25.6249],[108.7827,25.6243],[108.807,25.5285],[108.999277,25.527235],[109.0191,25.5152],[109.03964,25.526969],[109.0842,25.5525],[109.0269,25.6377],[109.0736,25.7205],[109.0003,25.7379],[108.9421,25.6794],[108.9151,25.6798],[108.911717,25.700924],[108.9073,25.7285],[109.1122,25.8122],[109.1412,25.7452],[109.1724,25.8093],[109.2026,25.7416],[109.3367,25.7348],[109.3379,25.8407],[109.472191,26.024969]]},"properties":{"boundary_group":"china-provinces"}},
{"type":"Feature","geometry":{"type":"LineString","coordinates":[[109.256,28.4675],[109.1436,28.4132],[109.0804,28.1871],[109.033,28.2216],[108.9809,28.1668],[108.8176,28.2487],[108.7529,28.2006],[108.7215,28.2838],[108.7771,28.4305],[108.7041,28.5024],[108.66962,28.481067],[108.6367,28.4607],[108.6933,28.4077],[108.6641,28.3387],[108.5751,28.3477],[108.5694,28.5293],[108.623157,28.637002],[108.329,28.6794],[108.3847,28.7937],[108.2912,29.0889],[108.23,29.0305],[108.0647,29.0892],[107.8617,28.964],[107.8047,28.986],[107.8064,29.1407],[107.7485,29.2017],[107.6924,29.1458],[107.5904,29.1471],[107.5648,29.2224],[107.4345,29.2045],[107.3652,29.096],[107.3662,28.9972],[107.4351,28.9565],[107.3903,28.8614],[107.239,28.7655],[107.1855,28.8931],[107.013,28.889],[106.9895,28.7748],[106.9223,28.8129],[106.8283,28.7738],[106.8633,28.6295],[106.753,28.6132],[106.7755,28.566],[106.7045,28.4539],[106.5644,28.488],[106.6471,28.6545],[106.465,28.8291],[106.5204,28.5763],[106.4707,28.6025],[106.4751,28.5333],[106.3921,28.5736],[106.3359,28.536]]},"properties":{"boundary_group":"china-provinces"}},
{"type":"Feature","geometry":{"type":"LineString","coordinates":[[106.3359,28.536],[106.2247,28.8927],[106.0443,28.9093],[105.9808,28.9842],[105.9067,28.9023],[105.7992,28.938],[105.7117,29.2989],[105.5145,29.2664],[105.4204,29.3321],[105.4242,29.4214],[105.3208,29.4507],[105.3174,29.6123],[105.475,29.7187],[105.5301,29.7021],[105.6135,29.8488],[105.7292,29.8699],[105.6976,29.9309],[105.7451,30.0365],[105.5341,30.1707],[105.6405,30.189],[105.6223,30.279],[105.7314,30.2739],[105.713,30.3276],[105.8127,30.4397],[106.153,30.3165],[106.2382,30.1815],[106.4093,30.2459],[106.437,30.3124],[106.5529,30.3187],[106.585465,30.2981],[106.6083,30.2959],[106.617595,30.277774],[106.6065,30.231],[106.7262,30.0304],[106.7487,30.0221],[106.9099,30.0278],[106.9814,30.0869],[107.0397,30.0374],[107.057157,30.059916],[107.5097,30.6436],[107.42,30.7426],[107.4799,30.8402],[107.6313,30.8153],[107.7117,30.8922],[107.8452,30.7949],[107.9484,30.873],[107.9904,30.9115],[107.931,30.9333],[107.9369,30.9891],[108.0492,31.043],[108.005,31.1109],[108.0879,31.1929],[108.0161,31.2469],[108.1761,31.3266],[108.1866,31.4927],[108.3342,31.5114],[108.5321,31.6715],[108.5311,31.7588],[108.2567,31.9686],[108.3659,31.9905],[108.3447,32.0733],[108.4482,32.0783],[108.3648,32.1776],[108.4019,32.198],[108.5046,32.2042]]},"properties":{"boundary_group":"china-provinces"}},
{"type":"Feature","geometry":{"type":"LineString","coordinates":[[108.5046,32.2042],[108.6037,32.159117],[108.6698,32.1048],[109.153719,31.881786],[109.2704,31.8021],[109.2751,31.7205],[109.5796,31.7285]]},"properties":{"boundary_group":"china-provinces"}},
{"type":"Feature","geometry":{"type":"LineString","coordinates":[[106.3359,28.536],[106.3752,28.4829],[105.9617,28.7639],[105.9027,28.6138],[105.8794,28.5977],[105.691,28.594],[105.650005,28.537439],[105.6248,28.5137],[105.6344,28.3261],[105.7276,28.2747],[105.7846,28.3394],[105.8875,28.241],[105.876,28.1256],[106.033,28.1135],[106.122,28.1702],[106.2031,28.138],[106.2629,28.0706],[106.25153,28.041249],[106.27704,27.990284],[106.3247,27.9571],[106.332692,27.879105],[106.3384,27.8234],[106.277637,27.809518],[106.133797,27.776658],[105.6341,27.6625],[105.5049,27.7724],[105.4737,27.7783],[105.452511,27.769571],[105.3938,27.7664],[105.319066,27.714595],[105.2983,27.7002]]},"properties":{"boundary_group":"china-provinces"}},
{"type":"Feature","geometry":{"type":"LineString","coordinates":[[105.2983,27.7002],[105.2697,27.7989],[105.3121,27.8221],[105.2357,27.8329],[105.2649,28.0018],[105.1791,28.0001],[105.1833,28.0582],[105.1635,28.0739],[105.086061,28.0918],[105.052778,28.099494],[105.033476,28.091235],[104.8738,27.9103],[104.5677,27.8453],[104.4674,27.9085],[104.2973,28.0468],[104.4489,28.1207],[104.3975,28.2016],[104.4629,28.2495],[104.3689,28.3395],[104.2891,28.3188],[104.2444,28.5268],[104.4215,28.6304],[104.2475,28.6671],[103.9422,28.6048],[103.8463,28.6691],[103.7813,28.5292],[103.8679,28.3041],[103.7099,28.2006],[103.6286,28.2622],[103.4522,28.127],[103.4281,28.0493],[103.5619,27.9807],[103.4872,27.8004],[103.2826,27.6387],[103.2934,27.5729],[103.2175,27.5673],[103.1426,27.4292],[102.9851,27.371],[102.9534,27.4154],[102.8812,27.3006],[102.8883,26.9467],[103.0546,26.5503],[102.988,26.4838],[102.988,26.3547],[102.8783,26.3695],[102.6742,26.2089],[102.6007,26.2567],[102.6303,26.3354],[102.55,26.366],[102.255,26.2236],[102.1059,26.0707],[101.9167,26.1128],[101.8445,26.0561],[101.8074,26.1654],[101.5963,26.2675],[101.6591,26.3143],[101.6309,26.4004],[101.3943,26.5672],[101.4619,26.613],[101.4515,26.6994],[101.5115,26.7743],[101.3869,26.7265],[101.3631,26.8879],[101.1339,27.0264],[101.1686,27.1943],[101.0401,27.2243],[101.0189,27.3468],[100.9356,27.4728],[100.8998,27.4578],[100.8472,27.6752],[100.7076,27.8016],[100.6895,27.9126],[100.6325,27.9183],[100.541,27.8148],[100.4314,27.8682],[100.3104,27.728],[100.3079,27.8617],[100.1688,27.9003],[100.1864,27.9565],[100.0195,28.1492],[100.1621,28.2198],[100.1719,28.3262],[100.0563,28.3726],[100.0735,28.429],[99.9495,28.5795],[99.7321,28.7229],[99.7123,28.8404],[99.6248,28.8165],[99.541,28.6294],[99.4029,28.5507],[99.4366,28.4113],[99.3912,28.169],[99.3053,28.2333],[99.209215,28.367628],[99.1736,28.4065],[99.1646,28.43],[99.148302,28.681374],[99.1075,28.8031],[99.1131,29.2243]]},"properties":{"boundary_group":"china-provinces"}},
{"type":"Feature","geometry":{"type":"LineString","coordinates":[[99.1131,29.2243],[99.114,29.2454],[98.9919,29.66],[99.066,29.9349],[98.9056,30.6858],[98.9574,30.7673],[98.7797,30.8961],[98.7968,31.0137],[98.6009,31.1939],[98.6312,31.3335],[98.772,31.2518],[98.8863,31.3785],[98.4139,31.8351],[98.4353,32.0028],[98.219,32.2364],[98.1958,32.3626],[97.7581,32.5332],[97.721271,32.529939],[97.700057,32.53795]]},"properties":{"boundary_group":"china-provinces"}},
{"type":"Feature","geometry":{"type":"LineString","coordinates":[[97.700057,32.53795],[97.4227,32.7077],[97.3604,32.9433],[97.5218,32.9901],[97.4867,33.1702],[97.5754,33.223],[97.6228,33.3416],[97.7538,33.4116],[97.5558,33.4654],[97.526,33.5758],[97.4153,33.6071],[97.4214,33.7582],[97.3678,33.8269],[97.3961,33.8906],[97.6419,33.9258],[97.7003,34.0364],[97.6658,34.1291],[97.8104,34.2093],[98.211,34.0807],[98.402,34.0879],[98.4403,33.9876],[98.4073,33.8698],[98.6349,33.672],[98.638338,33.647974],[98.6226,33.6122],[98.647382,33.58476],[98.713105,33.51199],[98.729643,33.493679],[98.744534,33.456862],[98.7574,33.2825],[98.8281,33.1823],[98.8546,33.1552],[99.1955,33.0356],[99.264,32.8829],[99.5484,32.8474],[99.7262,32.728],[99.7911,32.8861],[99.7653,32.9426],[99.8551,32.9494],[99.916905,33.02379],[100.1098,32.8627],[100.110875,32.695212],[100.0862,32.6717],[100.11116,32.650725],[100.1313,32.6338],[100.2112,32.6084],[100.2567,32.7424],[100.3951,32.756],[100.3782,32.6997],[100.4268,32.7285],[100.5422,32.575],[100.6454,32.528],[100.6638,32.6251],[100.7191,32.6243],[100.6836,32.6769],[100.926,32.6019],[101.095864,32.657355],[101.1099,32.6396],[101.161352,32.678735],[101.1931,32.6891],[101.2206,32.7238],[101.2369,32.8291],[101.1196,32.9131],[101.1272,32.991],[101.1841,32.988],[101.1228,33.2225],[101.2948,33.2642],[101.3811,33.1548],[101.3982,33.2261],[101.483,33.2287],[101.6318,33.1038],[101.739,33.2696],[101.6477,33.325],[101.6599,33.3855],[101.7652,33.4486],[101.768035,33.534158]]},"properties":{"boundary_group":"china-provinces"}},
{"type":"Feature","geometry":{"type":"LineString","coordinates":[[101.768035,33.534158],[101.8461,33.603],[101.86457,33.57272],[101.944,33.4425],[101.8757,33.3167],[101.7694,33.2707],[101.8408,33.1857],[101.834034,33.161693],[101.851999,33.131393],[101.89946,33.145341],[102.0834,33.1994],[102.113,33.298],[102.2068,33.2268],[102.1863,33.3293],[102.2324,33.3882],[102.334726,33.400197],[102.3681,33.3952],[102.3936,33.4071],[102.409774,33.433823],[102.4596,33.48],[102.4764,33.5439],[102.3381,33.6129],[102.3401,33.7308],[102.2845,33.7181],[102.32,33.7573],[102.2367,33.7921],[102.2625,33.8464],[102.1318,33.9653],[102.3871,33.9745],[102.4379,34.0882],[102.6498,34.0787],[102.5963,34.153],[102.9085,34.3152],[102.9706,34.1984],[103.1136,34.1768],[103.1763,34.0817],[103.1165,34.0364],[103.1571,34.0058],[103.1259,33.9303],[103.1837,33.9041],[103.1583,33.807],[103.2691,33.8115],[103.3307,33.7438],[103.5182,33.8118],[103.5389,33.675],[103.6167,33.7254],[103.7639,33.6575],[104.0361,33.6889],[104.1659,33.6147],[104.2198,33.4055],[104.2935,33.3325],[104.4118,33.3287],[104.3,33.3048],[104.3799,33.1086],[104.3307,33.0454],[104.424,33.0169],[104.2831,32.9403],[104.2979,32.8329],[104.6383,32.6653],[104.8265,32.6651],[104.8826,32.605],[105.0276,32.6526],[105.109,32.5963],[105.4463,32.7347],[105.3888,32.8376],[105.395041,32.856669],[105.3849,32.8808],[105.414468,32.916022],[105.4304,32.935],[105.479948,32.918434],[105.4883,32.8849]]},"properties":{"boundary_group":"china-provinces"}},
{"type":"Feature","geometry":{"type":"LineString","coordinates":[[105.4883,32.8849],[105.593,32.7023],[105.7954,32.7577],[105.8279,32.8277],[106.0226,32.8589],[106.089,32.8257],[106.0612,32.7841],[106.1087,32.7226],[106.4179,32.6191],[106.7276,32.7409],[106.7847,32.7],[107.0446,32.7173],[107.081985,32.603657],[107.114729,32.504123],[107.1225,32.4805],[107.211164,32.432348],[107.2381,32.4123],[107.280406,32.455396],[107.2943,32.4904],[107.326576,32.502429],[107.4298,32.5409],[107.452,32.4198],[107.6421,32.4153],[107.9721,32.148],[108.0276,32.2228],[108.176,32.2225],[108.2373,32.2763],[108.3058,32.2345],[108.4656,32.2726],[108.5046,32.2042]]},"properties":{"boundary_group":"china-provinces"}},
{"type":"Feature","geometry":{"type":"LineString","coordinates":[[104.5276,24.7348],[104.5379,24.8171],[104.7117,25.0015],[104.6698,25.0707],[104.7228,25.1978],[104.807,25.1609],[104.825,25.2422],[104.6606,25.285],[104.6344,25.3684],[104.5357,25.4127],[104.5546,25.5276],[104.434,25.476],[104.4179,25.5879],[104.3104,25.6565],[104.3264,25.7661],[104.369,25.7345],[104.428,25.822],[104.4551,26.088],[104.5245,26.1037],[104.5397,26.256],[104.6815,26.3726],[104.6611,26.4392],[104.569,26.5824],[104.4617,26.5985],[104.4196,26.7147],[104.3463,26.6231],[104.1249,26.6471],[104.0486,26.5091],[103.8633,26.5159],[103.838424,26.533585],[103.8134,26.5365],[103.805063,26.557303],[103.765765,26.655355],[103.7009,26.8172],[103.7777,26.879],[103.7759,26.9472],[103.7017,27.0531],[103.6304,27.0171],[103.6001,27.0629],[103.862,27.2928],[103.9308,27.448],[104.0132,27.4327],[104.1711,27.2667],[104.2518,27.2981],[104.3488,27.4695],[104.522009,27.362848],[104.5399,27.3287],[104.572454,27.331787],[104.6067,27.3107],[104.8215,27.3554],[104.8686,27.2945],[105.068,27.4229],[105.1886,27.3759],[105.2983,27.7002]]},"properties":{"boundary_group":"china-provinces"}},
{"type":"Feature","geometry":{"type":"LineString","coordinates":[[98.1355,28.1444],[98.2637,28.2425],[98.205,28.3584],[98.2893,28.3969],[98.3953,28.1088],[98.711,28.2325],[98.7518,28.344],[98.6188,28.5029],[98.5944,28.6837],[98.6814,28.7324],[98.6302,28.9761],[98.767,29.0092],[98.8389,28.8056],[98.97,28.8317],[98.9129,28.9109],[99.0147,29.043],[98.9617,29.1779],[99.1131,29.2243]]},"properties":{"boundary_group":"china-provinces"}},
{"type":"Feature","geometry":{"type":"LineString","coordinates":[[79.012353,34.350121],[79.021505,34.369323],[79.041938,34.412195],[79.110144,34.433937],[79.1574,34.449],[79.184432,34.440147],[79.2487,34.4191],[79.819,34.4932],[79.9238,34.8525],[80.0348,34.9049],[80.0284,35.0399],[80.208,35.1247],[80.2564,35.2045],[80.3553,35.213],[80.2757,35.3298],[80.4296,35.45],[80.5119,35.3922],[80.6523,35.3986],[80.6874,35.338],[80.966,35.3112],[81.0879,35.4098],[81.2136,35.3246],[81.4406,35.3335],[81.511,35.2361],[81.6801,35.2355],[82.0106,35.3113],[82.0312,35.4548],[82.3105,35.5429],[82.3338,35.6543],[82.4616,35.7154],[82.7316,35.6381],[82.7942,35.6908],[82.965,35.6722],[82.9819,35.5055],[83.1154,35.4009],[83.2391,35.4244],[83.6156,35.3364],[84.0041,35.4221],[84.1728,35.3586],[84.4511,35.4745],[84.4449,35.551],[85.0528,35.753],[85.2813,35.788],[85.3719,35.7007],[85.5974,35.6463],[85.6877,35.7511],[85.9468,35.7791],[86.0784,35.8623],[86.1967,36.0325],[86.1842,36.1314],[86.2766,36.1724],[86.6125,36.2196],[86.7643,36.2981],[87.1421,36.2934],[87.387634,36.409941],[87.44673,36.386291],[87.4631,36.3597],[87.5624,36.34],[88.4716,36.4816],[88.5845,36.461],[88.7632,36.293],[88.8972,36.3611],[88.9269,36.3609],[89.1272,36.2513],[89.2437,36.2913],[89.6776,36.0919]]},"properties":{"boundary_group":"china-provinces"}},
{"type":"Feature","geometry":{"type":"LineString","coordinates":[[89.6776,36.0919],[89.475634,36.037882],[89.401,36.0193],[89.4209,35.9199],[89.5471,35.8575],[89.7996,35.8493],[89.723,35.6487],[89.7583,35.5855],[89.6961,35.5391],[89.7628,35.4829],[89.5067,35.3734],[89.5265,35.2758],[89.4472,35.2267],[89.5899,35.1091],[89.5807,34.8999],[89.783,34.9237],[89.8668,34.8175],[89.7215,34.7026],[89.7963,34.6287],[89.7977,34.3975],[89.8706,34.3405],[89.814,34.1709],[89.6924,34.1312],[89.634,34.0441],[89.7926,33.8665],[89.9382,33.8053],[89.9047,33.7413],[90.0061,33.6916],[89.9858,33.5876],[90.0889,33.4718],[90.242,33.4284],[90.3619,33.2845],[90.401334,33.267502],[90.432699,33.253982],[90.7013,33.1382],[90.799105,33.124105],[90.947661,33.102697],[91.0132,33.1228],[91.1454,33.0742],[91.225,33.1437],[91.4294,33.0711],[91.522649,33.098147],[91.8373,32.9496],[91.9564,32.8216],[92.1973,32.8697],[92.1978,32.7574],[92.2543,32.7245],[92.355,32.7649],[92.637,32.7223],[92.6945,32.7657],[92.8727,32.6989],[93.0182,32.7389],[93.0657,32.6281],[93.241,32.6652],[93.3813,32.5264],[93.4617,32.5577],[93.5145,32.478],[93.7172,32.5803],[93.823,32.549],[93.8667,32.4753],[94.1384,32.434],[94.1954,32.5164],[94.3673,32.5231],[94.3939,32.5961],[94.4609,32.5731],[94.6101,32.6766],[94.923,32.4116],[95.2224,32.3913],[95.2581,32.3514],[95.078,32.2822],[95.2402,32.3226],[95.3117,32.1512],[95.4394,32.1598],[95.4532,32.0098],[95.3599,31.9395],[95.5136,31.7504],[95.7406,31.7639],[95.8238,31.6832],[95.8984,31.819],[95.9714,31.8203],[96.1468,31.6896],[96.1621,31.6021],[96.2505,31.6669],[96.176,31.7777],[96.1874,31.9058],[96.2398,31.9281],[96.3858,31.9256],[96.474,31.7709],[96.7733,31.6757],[96.8406,31.7298],[96.7645,31.823],[96.8108,31.8999],[96.7237,32.0263],[96.8662,31.9676],[96.8945,32.0176],[96.9558,31.9966],[96.9751,32.0692],[97.166,32.0268],[97.2347,32.0486],[97.2179,32.1092],[97.3073,32.0808],[97.2638,32.1864],[97.2932,32.2931],[97.4173,32.3085],[97.3399,32.4458],[97.350667,32.525752],[97.3405,32.5589],[97.363672,32.56548],[97.479187,32.556026],[97.700057,32.53795]]},"properties":{"boundary_group":"china-provinces"}},
{"type":"Feature","geometry":{"type":"LineString","coordinates":[[105.4883,32.8849],[105.58944,32.894366],[105.6325,32.8849],[105.6778,32.902635],[105.7223,32.9068],[105.915,32.9955],[105.8912,33.1473],[105.9258,33.2014],[105.9665,33.1484],[105.9586,33.2123],[105.7472,33.2876],[105.6998,33.3926],[105.8196,33.3826],[105.8405,33.5014],[105.9555,33.6159],[106.0824,33.6191],[106.1827,33.5457],[106.4334,33.6227],[106.4654,33.5265],[106.5552,33.5321],[106.5725,33.6365],[106.4544,33.7937],[106.4907,33.8572],[106.4065,33.9115],[106.4968,34.1126],[106.5782,34.1432],[106.5053,34.2841],[106.6759,34.2566],[106.7142,34.3726],[106.4835,34.5249],[106.3293,34.5188],[106.3093,34.5798],[106.4583,34.639],[106.4502,34.709],[106.5712,34.7716],[106.4788,34.981],[106.5397,35.0867],[106.8966,35.0965],[107.0809,35.0181],[107.1874,34.8832],[107.2848,34.9395],[107.5215,34.9137],[107.5689,34.9688],[107.6348,34.9193],[107.847362,34.997281],[107.6484,35.2414],[107.7192,35.305],[107.9628,35.2426],[108.1664,35.3064],[108.2512,35.2567],[108.3405,35.302],[108.4741,35.2774],[108.516902,35.294334],[108.5752,35.2918],[108.592712,35.324326],[108.6159,35.3335],[108.61572,35.367062],[108.6334,35.3999],[108.6197,35.5325],[108.6147,35.5578],[108.5138,35.6517],[108.4939,35.8707],[108.6467,35.9441],[108.701367,36.118807],[108.709,36.1432],[108.659618,36.289075],[108.61585,36.418364],[108.609,36.4386],[108.4015,36.4453],[108.3447,36.5558],[108.2028,36.5776],[108.2176,36.6308],[108.123913,36.570142],[108.0534,36.5943],[108.041797,36.614391],[108.002,36.6833],[107.9327,36.6588],[107.8253,36.7861],[107.5308,36.8282],[107.4814,36.914],[107.3138,36.914],[107.2637,37.099]]},"properties":{"boundary_group":"china-provinces"}},
{"type":"Feature","geometry":{"type":"LineString","coordinates":[[107.2637,37.099],[107.3337,37.1587],[107.2578,37.2242],[107.3035,37.2511],[107.2513,37.3336],[107.2594,37.3936],[107.2806,37.4819],[107.3667,37.5782],[107.3096,37.6052],[107.4146,37.6495],[107.3807,37.6918],[107.466,37.6866],[107.4922,37.7643],[107.6237,37.7723],[107.6614,37.852],[107.670332,37.869965]]},"properties":{"boundary_group":"china-provinces"}},
{"type":"Feature","geometry":{"type":"LineString","coordinates":[[104.303,37.438392],[104.6705,37.4106],[104.6647,37.3559],[104.7146,37.3491],[104.6181,37.2961],[104.6353,37.2015],[104.8242,37.2275],[104.9628,37.031],[105.1616,36.9946],[105.1803,36.9014],[105.2716,36.8701],[105.3376,36.7644],[105.199,36.705],[105.2454,36.5476],[105.3576,36.4976],[105.5107,36.1472],[105.34,36.0338],[105.321,35.9065],[105.3956,35.8577],[105.37,35.8061],[105.4262,35.8189],[105.5605,35.689],[105.666,35.7515],[105.7501,35.7323],[105.6886,35.6838],[105.8313,35.496],[105.8832,35.5478],[106.091,35.5104],[106.0978,35.3802],[106.1666,35.4352],[106.2361,35.4077],[106.3512,35.2407],[106.4986,35.3547],[106.4298,35.6889],[106.5926,35.7465],[106.7308,35.6885],[106.925,35.8077],[106.8493,35.8829],[106.9414,35.941],[106.8854,35.9717],[106.9454,35.9915],[106.9531,36.0921],[106.8342,36.2216],[106.6049,36.2906],[106.4995,36.2688],[106.4657,36.3119],[106.5057,36.3009],[106.5185,36.4778],[106.3576,36.571],[106.4516,36.5598],[106.5103,36.7159],[106.6277,36.7353],[106.6358,36.8822],[106.5793,36.9355],[106.5376,36.9696],[106.608968,36.964668],[106.634827,36.990091],[106.619369,37.094418],[106.6011,37.1272],[106.7455,37.0897],[106.7763,37.1583],[106.8915,37.1],[106.9019,37.1511],[107.099176,37.126003],[107.1776,37.1408],[107.24101,37.107959],[107.2637,37.099]]},"properties":{"boundary_group":"china-provinces"}},
{"type":"Feature","geometry":{"type":"LineString","coordinates":[[101.768035,33.534158],[101.6304,33.4942],[101.5388,33.6973],[101.385,33.6466],[101.1646,33.6623],[101.1527,33.845],[100.9956,33.8921],[100.7653,34.1761],[100.8043,34.2893],[100.8241,34.3214],[100.856447,34.337846],[100.8999,34.3783],[100.928042,34.374249],[101.010488,34.362381],[101.289778,34.28343],[101.3298,34.2532],[101.5368,34.2136],[101.5803,34.1969],[101.7101,34.0873],[101.7359,34.0812],[101.8476,34.1548],[101.9559,34.1098],[102.0655,34.2938],[102.1451,34.273],[102.1865,34.3561],[102.2575,34.3571],[102.1539,34.5091],[101.9326,34.5894],[101.9161,34.8753],[102.0578,34.8892],[102.0928,34.9881],[102.2785,35.0584],[102.4047,35.1804],[102.2761,35.3057],[102.3167,35.3432],[102.292,35.4253],[102.447,35.4383],[102.5293,35.5815],[102.7415,35.4941],[102.7811,35.5287],[102.7255,35.5327],[102.8052,35.5597],[102.6953,35.7978],[102.7821,35.8622],[102.9484,35.837],[102.9735,36.0371],[102.88,36.0834],[102.9851,36.1941],[103.0689,36.2071],[102.8386,36.3389],[102.7626,36.5755],[102.6069,36.6779],[102.6972,36.7951],[102.4488,36.9686],[102.5044,37.0216],[102.4852,37.0785],[102.6405,37.0999],[102.626598,37.125712],[102.6021,37.1712],[102.521148,37.221365],[102.1012,37.4816],[102.1273,37.5427],[101.9968,37.7258],[101.814,37.6535],[101.608779,37.809017],[101.597,37.8277],[101.5737,37.8356],[101.4361,37.8668],[101.3539,37.7897],[101.2014,37.8467],[101.169482,37.878427],[100.9012,38.0081],[100.9102,38.1781],[100.8429,38.1477],[100.7112,38.2534],[100.4298,38.2723],[100.0608,38.5198],[99.9993,38.4675],[100.1673,38.3205],[100.1803,38.2199],[100.1271,38.2289],[99.765738,38.392668],[99.6764,38.4299],[99.6549,38.4429],[99.3494,38.7367],[99.0635,38.9052],[99.0967,38.9562],[98.8119,39.0869],[98.7426,39.0856],[98.5879,38.9303],[98.2955,39.0388],[98.2471,38.8814],[98.0935,38.7849],[97.3454,39.1747],[97.0104,39.2119],[96.986323,39.204786],[96.962,39.1976],[97.0124,39.1415],[96.9342,38.9709],[96.947357,38.929886],[96.9402,38.9066],[97.0554,38.5931],[96.9277,38.5548],[96.7944,38.6078],[96.7891,38.5142],[96.6576,38.4886],[96.6985,38.4576],[96.6261,38.3555],[96.6653,38.2221],[96.3961,38.2807],[96.2633,38.145],[96.0431,38.1801],[95.6879,38.3971],[95.4532,38.2914],[95.2674,38.2973],[95.1226,38.4134],[94.9715,38.4303],[94.5505,38.3503],[94.3697,38.7616],[93.8742,38.7204],[93.7548,38.8073],[93.883,38.826],[93.8835,38.8675],[93.7303,38.9237],[93.1792,38.9228],[93.1966,39.0455],[93.114,39.1791],[92.4938,39.1018],[92.406138,39.023298]]},"properties":{"boundary_group":"china-provinces"}},
{"type":"Feature","geometry":{"type":"LineString","coordinates":[[92.406138,39.023298],[92.3557,39.0636],[92.3385,39.2374],[92.6388,39.5138],[92.7953,40.1532],[92.9058,40.3101],[92.9273,40.572],[93.7593,40.664],[93.8061,40.876],[94.0093,41.1135],[94.533,41.5045],[94.7489,41.5368],[94.8611,41.6672],[95.1356,41.7714],[95.2963,41.565],[95.3601,41.6683],[95.5701,41.7938],[96.0335,41.9206],[96.1365,42.0178],[96.0761,42.1479],[96.1776,42.2163],[96.0401,42.3249],[96.0651,42.4128],[95.9779,42.4352],[96.1011,42.6011],[96.3552,42.7072],[96.3848,42.7254]]},"properties":{"boundary_group":"china-provinces"}},
{"type":"Feature","geometry":{"type":"LineString","coordinates":[[89.6776,36.0919],[89.70069,36.089795],[89.9408,36.0679],[90.033812,36.26592],[90.2357,36.1614],[90.6565,36.1358],[90.8401,36.0184],[90.9738,36.1054],[91.09875,36.109833],[91.1232,36.1107],[91.0254,36.3233],[91.0329,36.5317],[90.7396,36.5856],[90.7209,36.7961],[90.7308,36.8251],[90.774941,36.845004],[91.009662,36.950844],[91.282867,37.012942],[91.3042,37.0124],[91.303321,37.037404],[91.3017,37.0835],[91.2756,37.1638],[91.224268,37.18823],[91.0737,37.4755],[90.9356,37.4819],[90.7863,37.6428],[90.5181,37.731],[90.5294,38.3196],[90.279,38.2379],[90.1356,38.3403],[90.1772,38.3968],[90.1133,38.4125],[90.111,38.482],[90.1329,38.4946],[90.4214,38.4909],[90.6097,38.5962],[90.6212,38.6663],[91.1113,38.707],[92.378,38.9981],[92.406138,39.023298]]},"properties":{"boundary_group":"china-provinces"}}
]}