{"type":"FeatureCollection","features":[{"type":"Feature","geometry":{"type":"LineString","coordinates":[[108.2966,15.0481],[108.552781,14.817673],[108.567974,14.788161],[108.6182,14.6406]]},"properties":{"boundary_group":"world-admin1-vietnam"}},{"type":"Feature","geometry":{"type":"LineString","coordinates":[[108.6182,14.6406],[108.4164,14.6245],[108.411,14.5161],[108.3364,14.4307],[107.72,14.1856],[107.446,13.9216]]},"properties":{"boundary_group":"world-admin1-vietnam"}},{"type":"Feature","geometry":{"type":"LineString","coordinates":[[107.604655,15.40235],[107.8505,15.2277],[108.0062,15.1944],[108.1385,14.9565],[108.2029,15.0639],[108.2966,15.0481]]},"properties":{"boundary_group":"world-admin1-vietnam"}},{"type":"Feature","geometry":{"type":"LineString","coordinates":[[107.5401,12.7167],[107.8422,12.7207],[107.9102,12.5379],[108.0059,12.4868],[107.9353,12.425],[107.9412,12.3538],[108.087461,12.234451],[108.106495,12.182317]]},"properties":{"boundary_group":"world-admin1-vietnam"}},{"type":"Feature","geometry":{"type":"LineString","coordinates":[[108.106495,12.182317],[108.045748,12.131751],[107.9986,12.1257],[107.989919,12.085278],[107.9855,12.0647],[108.086959,11.930147],[108.084933,11.908513],[108.003936,11.775585],[107.867058,11.835114],[107.702,11.9069],[107.5634,11.7869],[107.3904,11.7518],[107.385344,11.779206]]},"properties":{"boundary_group":"world-admin1-vietnam"}},{"type":"Feature","geometry":{"type":"LineString","coordinates":[[107.385344,11.779206],[107.4002,11.7975],[107.374558,11.837669],[107.2581,12.0201],[107.2119,12.3057]]},"properties":{"boundary_group":"world-admin1-vietnam"}},{"type":"Feature","geometry":{"type":"LineString","coordinates":[[107.5616,13.262],[107.5921,13.2769],[107.6809,13.3329],[108.089636,13.382052],[108.239613,13.334498],[108.369888,13.285488],[108.42304,13.19264],[108.4721,13.0739],[108.496848,13.06371],[108.6608,12.9962]]},"properties":{"boundary_group":"world-admin1-vietnam"}},{"type":"Feature","geometry":{"type":"LineString","coordinates":[[108.6608,12.9962],[108.851112,12.816882],[108.927193,12.790656],[109.031484,12.754705]]},"properties":{"boundary_group":"world-admin1-vietnam"}},{"type":"Feature","geometry":{"type":"LineString","coordinates":[[109.031484,12.754705],[108.904606,12.673713],[108.848,12.4754],[108.676867,12.469205],[108.678012,12.428142],[108.70418,12.271191]]},"properties":{"boundary_group":"world-admin1-vietnam"}},{"type":"Feature","geometry":{"type":"LineString","coordinates":[[108.70418,12.271191],[108.4995,12.2986],[108.2425,12.157],[108.1176,12.1519],[108.106495,12.182317]]},"properties":{"boundary_group":"world-admin1-vietnam"}},{"type":"Feature","geometry":{"type":"LineString","coordinates":[[108.6182,14.6406],[108.663289,14.520582]]},"properties":{"boundary_group":"world-admin1-vietnam"}},{"type":"Feature","geometry":{"type":"LineString","coordinates":[[108.663289,14.520582],[108.6871,14.4572],[108.649671,14.236177],[108.644633,14.130971],[108.764449,13.848523],[108.799792,13.765206],[108.827287,13.557335]]},"properties":{"boundary_group":"world-admin1-vietnam"}},{"type":"Feature","geometry":{"type":"LineString","coordinates":[[108.827287,13.557335],[108.831813,13.513782],[108.864337,13.200783],[108.842292,13.178625],[108.6608,12.9962]]},"properties":{"boundary_group":"world-admin1-vietnam"}},{"type":"Feature","geometry":{"type":"LineString","coordinates":[[107.385344,11.779206],[107.3276,11.7178],[107.314179,11.691571],[107.2816,11.6279],[107.369682,11.555625]]},"properties":{"boundary_group":"world-admin1-vietnam"}},{"type":"Feature","geometry":{"type":"LineString","coordinates":[[107.369682,11.555625],[107.111368,11.477537],[107.069399,11.422004],[106.9648,11.2836]]},"properties":{"boundary_group":"world-admin1-vietnam"}},{"type":"Feature","geometry":{"type":"LineString","coordinates":[[106.9648,11.2836],[106.7913,11.3353],[106.7182,11.3069],[106.6962,11.3608],[106.6383,11.3196],[106.6191,11.4314],[106.4643,11.5533]]},"properties":{"boundary_group":"world-admin1-vietnam"}},{"type":"Feature","geometry":{"type":"LineString","coordinates":[[106.4643,11.5533],[106.470249,11.637341],[106.459115,11.669308],[106.4346,11.6784]]},"properties":{"boundary_group":"world-admin1-vietnam"}},{"type":"Feature","geometry":{"type":"LineString","coordinates":[[106.4643,11.5533],[106.351522,11.35724],[106.349481,11.321464],[106.377486,11.217552],[106.4296,11.1242]]},"properties":{"boundary_group":"world-admin1-vietnam"}},{"type":"Feature","geometry":{"type":"LineString","coordinates":[[106.4296,11.1242],[106.412552,11.08744],[106.4186,11.065],[106.3637,10.9821]]},"properties":{"boundary_group":"world-admin1-vietnam"}},{"type":"Feature","geometry":{"type":"LineString","coordinates":[[106.3637,10.9821],[106.311622,11.018443],[106.244182,10.995998],[106.175803,10.97324]]},"properties":{"boundary_group":"world-admin1-vietnam"}},{"type":"Feature","geometry":{"type":"LineString","coordinates":[[106.3637,10.9821],[106.5117,10.8856],[106.5045,10.7232],[106.726308,10.636116],[106.73585,10.591113],[106.7441,10.5522],[106.7334,10.5224]]},"properties":{"boundary_group":"world-admin1-vietnam"}},{"type":"Feature","geometry":{"type":"LineString","coordinates":[[106.6076,10.4248],[106.584102,10.42353],[106.462958,10.416982],[106.352506,10.52197],[106.294514,10.577094],[106.256437,10.581613],[106.067007,10.573368],[105.9627,10.5535]]},"properties":{"boundary_group":"world-admin1-vietnam"}},{"type":"Feature","geometry":{"type":"LineString","coordinates":[[105.9627,10.5535],[105.946556,10.568125],[105.923,10.5671],[105.5236,10.9513]]},"properties":{"boundary_group":"world-admin1-vietnam"}},{"type":"Feature","geometry":{"type":"LineString","coordinates":[[105.9627,10.5535],[105.859779,10.325299],[105.849,10.3014]]},"properties":{"boundary_group":"world-admin1-vietnam"}},{"type":"Feature","geometry":{"type":"LineString","coordinates":[[105.849,10.3014],[105.778894,10.339879],[105.57911,10.449534]]},"properties":{"boundary_group":"world-admin1-vietnam"}},{"type":"Feature","geometry":{"type":"LineString","coordinates":[[105.57911,10.449534],[105.554178,10.468977],[105.379055,10.646296],[105.3693,10.7027],[105.320202,10.705886],[105.272228,10.754462],[105.2091,10.8916]]},"properties":{"boundary_group":"world-admin1-vietnam"}},{"type":"Feature","geometry":{"type":"LineString","coordinates":[[105.57911,10.449534],[105.4734,10.2753],[105.3775,10.2331],[105.3203,10.2769],[105.2415,10.1996]]},"properties":{"boundary_group":"world-admin1-vietnam"}},{"type":"Feature","geometry":{"type":"LineString","coordinates":[[105.2415,10.1996],[104.7244,10.5213]]},"properties":{"boundary_group":"world-admin1-vietnam"}},{"type":"Feature","geometry":{"type":"LineString","coordinates":[[105.2415,10.1996],[105.4228,10.0436]]},"properties":{"boundary_group":"world-admin1-vietnam"}},{"type":"Feature","geometry":{"type":"LineString","coordinates":[[105.4228,10.0436],[105.447175,10.012307],[105.5257,9.9408],[105.520967,9.917571],[105.515642,9.891438],[105.504,9.8343],[105.3676,9.7019],[105.388668,9.603725]]},"properties":{"boundary_group":"world-admin1-vietnam"}},{"type":"Feature","geometry":{"type":"LineString","coordinates":[[105.388668,9.603725],[105.296,9.6003],[105.29006,9.415509]]},"properties":{"boundary_group":"world-admin1-vietnam"}},{"type":"Feature","geometry":{"type":"LineString","coordinates":[[105.29006,9.415509],[105.0239,9.5283],[104.8341,9.5344]]},"properties":{"boundary_group":"world-admin1-vietnam"}},{"type":"Feature","geometry":{"type":"LineString","coordinates":[[102.3246,22.5651],[102.5232,22.562],[102.7768,22.3604],[102.9347,22.1374],[103.0403,22.1477],[103.2644,22.048],[103.324,22.1495],[103.3832,22.15],[103.5504,21.8869]]},"properties":{"boundary_group":"world-admin1-vietnam"}},{"type":"Feature","geometry":{"type":"LineString","coordinates":[[103.5504,21.8869],[103.5616,21.6105],[103.3763,21.3954],[103.4464,21.2895],[103.4377,21.0728],[103.2877,21.078],[103.2258,20.8264]]},"properties":{"boundary_group":"world-admin1-vietnam"}},{"type":"Feature","geometry":{"type":"LineString","coordinates":[[103.5504,21.8869],[103.568673,21.994155],[103.5694,22.0336]]},"properties":{"boundary_group":"world-admin1-vietnam"}},{"type":"Feature","geometry":{"type":"LineString","coordinates":[[103.5694,22.0336],[103.6349,22.0242],[103.8565,21.7159],[103.923824,21.73491]]},"properties":{"boundary_group":"world-admin1-vietnam"}},{"type":"Feature","geometry":{"type":"LineString","coordinates":[[103.923824,21.73491],[104.1698,21.6593],[104.319919,21.698145],[104.311,21.4955],[104.3571,21.4164],[104.4697,21.3623],[104.5823,21.4132],[104.7356,21.391],[104.8285,21.3296]]},"properties":{"boundary_group":"world-admin1-vietnam"}},{"type":"Feature","geometry":{"type":"LineString","coordinates":[[104.8285,21.3296],[104.9086,21.1014]]},"properties":{"boundary_group":"world-admin1-vietnam"}},{"type":"Feature","geometry":{"type":"LineString","coordinates":[[104.9086,21.1014],[104.887619,21.043315],[104.902047,20.998987],[105.0931,20.7943],[104.8574,20.7279],[104.8429,20.6257]]},"properties":{"boundary_group":"world-admin1-vietnam"}},{"type":"Feature","geometry":{"type":"LineString","coordinates":[[104.8429,20.6257],[104.7598,20.5741],[104.6141,20.6426]]},"properties":{"boundary_group":"world-admin1-vietnam"}},{"type":"Feature","geometry":{"type":"LineString","coordinates":[[104.8429,20.6257],[105.138,20.5908],[105.176563,20.566174],[105.400388,20.423241],[105.5426,20.3671]]},"properties":{"boundary_group":"world-admin1-vietnam"}},{"type":"Feature","geometry":{"type":"LineString","coordinates":[[105.5426,20.3671],[105.8195,20.1556],[106.06,20.0602]]},"properties":{"boundary_group":"world-admin1-vietnam"}},{"type":"Feature","geometry":{"type":"LineString","coordinates":[[105.8062,19.2743],[105.3424,19.5482],[105.277,19.5142],[105.1382,19.7868],[105.166752,19.895557],[104.9457,19.9924]]},"properties":{"boundary_group":"world-admin1-vietnam"}},{"type":"Feature","geometry":{"type":"LineString","coordinates":[[105.7576,18.772],[105.687644,18.59442],[105.670284,18.578151],[105.52547,18.589761],[105.224213,18.613914],[105.1695,18.6183]]},"properties":{"boundary_group":"world-admin1-vietnam"}},{"type":"Feature","geometry":{"type":"LineString","coordinates":[[106.5186,17.957],[106.1387,17.9289],[105.9272,18.0708],[105.6034,17.9692]]},"properties":{"boundary_group":"world-admin1-vietnam"}},{"type":"Feature","geometry":{"type":"LineString","coordinates":[[107.0075,17.1622],[106.786,16.9663],[106.70856,16.968016]]},"properties":{"boundary_group":"world-admin1-vietnam"}},{"type":"Feature","geometry":{"type":"LineString","coordinates":[[107.4116,16.75],[107.3091,16.6196],[107.118536,16.556774],[107.167,16.4641],[107.078565,16.309294],[107.068,16.2908]]},"properties":{"boundary_group":"world-admin1-vietnam"}},{"type":"Feature","geometry":{"type":"LineString","coordinates":[[108.1992,16.2113],[107.9531,16.2159],[107.859502,16.091973]]},"properties":{"boundary_group":"world-admin1-vietnam"}},{"type":"Feature","geometry":{"type":"LineString","coordinates":[[107.859502,16.091973],[107.8217,16.0925],[107.7299,16.0141],[107.6623,16.0914],[107.4333,16.0555]]},"properties":{"boundary_group":"world-admin1-vietnam"}},{"type":"Feature","geometry":{"type":"LineString","coordinates":[[107.859502,16.091973],[108.0009,16.09],[108.051184,15.986567],[108.2823,15.9901]]},"properties":{"boundary_group":"world-admin1-vietnam"}},{"type":"Feature","geometry":{"type":"LineString","coordinates":[[108.745927,15.393073],[108.368114,15.308053],[108.282805,15.187439],[108.312727,15.118249],[108.31904,15.085042],[108.2966,15.0481]]},"properties":{"boundary_group":"world-admin1-vietnam"}},{"type":"Feature","geometry":{"type":"LineString","coordinates":[[105.5676,22.5922],[105.1796,22.6453],[105.0489,22.357],[104.9457,22.3447],[104.8483,22.1702]]},"properties":{"boundary_group":"world-admin1-vietnam"}},{"type":"Feature","geometry":{"type":"LineString","coordinates":[[104.8483,22.1702],[104.8197,22.1677],[104.669278,22.257615],[104.6499,22.251113],[104.6232,22.242154]]},"properties":{"boundary_group":"world-admin1-vietnam"}},{"type":"Feature","geometry":{"type":"LineString","coordinates":[[104.6232,22.242154],[104.5947,22.3317],[104.4709,22.4187],[104.472359,22.578058],[104.45261,22.607381]]},"properties":{"boundary_group":"world-admin1-vietnam"}},{"type":"Feature","geometry":{"type":"LineString","coordinates":[[105.5352,23.099],[105.515094,23.079398],[105.2959,22.8657],[105.4519,22.7748],[105.5676,22.5922]]},"properties":{"boundary_group":"world-admin1-vietnam"}},{"type":"Feature","geometry":{"type":"LineString","coordinates":[[106.50175,22.397517],[106.469425,22.391432],[106.258,22.4462],[106.238029,22.434063],[106.1621,22.4088]]},"properties":{"boundary_group":"world-admin1-vietnam"}},{"type":"Feature","geometry":{"type":"LineString","coordinates":[[106.1621,22.4088],[106.086684,22.534965],[105.8801,22.4721],[105.854685,22.485081],[105.802369,22.562467],[105.7653,22.6173],[105.760749,22.71328],[105.5676,22.5922]]},"properties":{"boundary_group":"world-admin1-vietnam"}},{"type":"Feature","geometry":{"type":"LineString","coordinates":[[103.5694,22.0336],[103.585529,22.093093],[103.598541,22.141092],[103.8018,22.3632],[103.5879,22.4519],[103.607873,22.547622],[103.596506,22.576254],[103.5499,22.6487]]},"properties":{"boundary_group":"world-admin1-vietnam"}},{"type":"Feature","geometry":{"type":"LineString","coordinates":[[104.6232,22.242154],[104.6454,22.1724],[104.5545,22.0957],[104.3989,22.1348],[104.4439,21.9708],[104.3942,21.8986],[104.2322,21.9602],[104.197,21.8871],[103.9839,21.9742],[103.9115,21.8611],[103.923824,21.73491]]},"properties":{"boundary_group":"world-admin1-vietnam"}},{"type":"Feature","geometry":{"type":"LineString","coordinates":[[107.3336,21.6125],[107.2331,21.5443],[107.2148,21.4067],[107.179186,21.401004],[107.060533,21.353565]]},"properties":{"boundary_group":"world-admin1-vietnam"}},{"type":"Feature","geometry":{"type":"LineString","coordinates":[[107.060533,21.353565],[107.0241,21.3762],[106.8279,21.5972],[106.7477,21.5493],[106.5804,21.5991],[106.3987,21.4111],[106.1655,21.5171]]},"properties":{"boundary_group":"world-admin1-vietnam"}},{"type":"Feature","geometry":{"type":"LineString","coordinates":[[106.1655,21.5171],[106.2567,21.6849],[106.1177,21.8981],[106.118669,21.924202],[106.114,21.9481]]},"properties":{"boundary_group":"world-admin1-vietnam"}},{"type":"Feature","geometry":{"type":"LineString","coordinates":[[106.114,21.9481],[106.1235,22.0543],[106.255173,22.254752],[106.1621,22.4088]]},"properties":{"boundary_group":"world-admin1-vietnam"}},{"type":"Feature","geometry":{"type":"LineString","coordinates":[[106.4445,21.0644],[106.5458,21.1937]]},"properties":{"boundary_group":"world-admin1-vietnam"}},{"type":"Feature","geometry":{"type":"LineString","coordinates":[[106.5458,21.1937],[106.600649,21.194304],[106.953737,21.198192],[106.975014,21.229147],[107.0146,21.3352],[107.060533,21.353565]]},"properties":{"boundary_group":"world-admin1-vietnam"}},{"type":"Feature","geometry":{"type":"LineString","coordinates":[[105.8683,9.2547],[105.827734,9.365114],[105.5997,9.418],[105.5693,9.6104]]},"properties":{"boundary_group":"world-admin1-vietnam"}},{"type":"Feature","geometry":{"type":"LineString","coordinates":[[105.5693,9.6104],[105.707151,9.686116],[105.8322,9.7548],[105.9021,9.9167]]},"properties":{"boundary_group":"world-admin1-vietnam"}},{"type":"Feature","geometry":{"type":"LineString","coordinates":[[106.5117,10.2959],[106.4125,10.3231],[105.9549,10.2885]]},"properties":{"boundary_group":"world-admin1-vietnam"}},{"type":"Feature","geometry":{"type":"LineString","coordinates":[[105.9549,10.2885],[105.896578,10.291514],[105.849,10.3014]]},"properties":{"boundary_group":"world-admin1-vietnam"}},{"type":"Feature","geometry":{"type":"LineString","coordinates":[[107.0256,10.5014],[107.0114,10.5219],[106.9841,10.5669]]},"properties":{"boundary_group":"world-admin1-vietnam"}},{"type":"Feature","geometry":{"type":"LineString","coordinates":[[106.9841,10.5669],[106.9978,10.6249],[107.030094,10.64835],[107.258643,10.769558],[107.3425,10.6837],[107.4579,10.8015],[107.5166,10.7561]]},"properties":{"boundary_group":"world-admin1-vietnam"}},{"type":"Feature","geometry":{"type":"LineString","coordinates":[[107.5166,10.7561],[107.5865,10.5735]]},"properties":{"boundary_group":"world-admin1-vietnam"}},{"type":"Feature","geometry":{"type":"LineString","coordinates":[[106.4296,11.1242],[106.517923,11.130291],[106.5919,11.0338],[106.68439,10.923279],[106.7123,10.881],[106.836,10.8878]]},"properties":{"boundary_group":"world-admin1-vietnam"}},{"type":"Feature","geometry":{"type":"LineString","coordinates":[[106.836,10.8878],[106.872471,10.786699],[106.7511,10.7725],[106.757,10.7054],[106.8925,10.6701],[106.9841,10.5669]]},"properties":{"boundary_group":"world-admin1-vietnam"}},{"type":"Feature","geometry":{"type":"LineString","coordinates":[[109.031484,12.754705],[109.0739,12.7541],[109.186032,12.839442],[109.3723,12.8436]]},"properties":{"boundary_group":"world-admin1-vietnam"}},{"type":"Feature","geometry":{"type":"LineString","coordinates":[[109.19453,11.789209],[109.1339,11.7925],[109.097615,11.838345],[108.8779,11.9542],[108.842646,12.042258],[108.799484,12.130767],[108.772869,12.147453],[108.712599,12.153511]]},"properties":{"boundary_group":"world-admin1-vietnam"}},{"type":"Feature","geometry":{"type":"LineString","coordinates":[[108.712599,12.153511],[108.7192,12.1811],[108.70418,12.271191]]},"properties":{"boundary_group":"world-admin1-vietnam"}},{"type":"Feature","geometry":{"type":"LineString","coordinates":[[105.29006,9.415509],[105.288899,9.379387],[105.3169,9.2972],[105.2833,9.2052],[105.4202,9.0332],[105.426,9.008]]},"properties":{"boundary_group":"world-admin1-vietnam"}},{"type":"Feature","geometry":{"type":"LineString","coordinates":[[105.388668,9.603725],[105.453557,9.606123],[105.5693,9.6104]]},"properties":{"boundary_group":"world-admin1-vietnam"}},{"type":"Feature","geometry":{"type":"LineString","coordinates":[[105.4228,10.0436],[105.6922,10.1232]]},"properties":{"boundary_group":"world-admin1-vietnam"}},{"type":"Feature","geometry":{"type":"LineString","coordinates":[[105.6922,10.1232],[105.8385,10.0048]]},"properties":{"boundary_group":"world-admin1-vietnam"}},{"type":"Feature","geometry":{"type":"LineString","coordinates":[[105.9549,10.2885],[106.057177,10.258143],[106.105098,10.24392],[106.1365,10.2346]]},"properties":{"boundary_group":"world-admin1-vietnam"}},{"type":"Feature","geometry":{"type":"LineString","coordinates":[[106.2356,10.0741],[106.1326,9.9458],[105.9966,9.8886]]},"properties":{"boundary_group":"world-admin1-vietnam"}},{"type":"Feature","geometry":{"type":"LineString","coordinates":[[105.6922,10.1232],[105.7275,10.1856],[105.8679,10.1407],[105.882036,10.162887],[105.893406,10.180734],[105.9146,10.214],[105.863835,10.261089],[105.849,10.3014]]},"properties":{"boundary_group":"world-admin1-vietnam"}},{"type":"Feature","geometry":{"type":"LineString","coordinates":[[107.369682,11.555625],[107.394606,11.535174],[107.4567,11.4104],[107.5973,11.3576]]},"properties":{"boundary_group":"world-admin1-vietnam"}},{"type":"Feature","geometry":{"type":"LineString","coordinates":[[107.5973,11.3576],[107.4309,11.0381],[107.549807,10.983205],[107.562656,10.959433],[107.579828,10.893211],[107.5166,10.7561]]},"properties":{"boundary_group":"world-admin1-vietnam"}},{"type":"Feature","geometry":{"type":"LineString","coordinates":[[106.836,10.8878],[106.784,11.0259],[106.9547,11.064],[106.9339,11.2147],[106.96373,11.260338],[106.9648,11.2836]]},"properties":{"boundary_group":"world-admin1-vietnam"}},{"type":"Feature","geometry":{"type":"LineString","coordinates":[[107.5973,11.3576],[107.624619,11.353888],[107.7268,11.3195],[108.0102,11.3015],[108.076596,11.209658],[108.170557,11.265149],[108.325549,11.362335],[108.3412,11.5079],[108.5804,11.5052],[108.655059,11.554915]]},"properties":{"boundary_group":"world-admin1-vietnam"}},{"type":"Feature","geometry":{"type":"LineString","coordinates":[[108.655059,11.554915],[108.761444,11.423235],[108.775996,11.405223],[108.815858,11.380146],[108.9059,11.3235]]},"properties":{"boundary_group":"world-admin1-vietnam"}},{"type":"Feature","geometry":{"type":"LineString","coordinates":[[108.655059,11.554915],[108.607736,11.613489],[108.6833,11.7271],[108.6374,11.8392],[108.712599,12.153511]]},"properties":{"boundary_group":"world-admin1-vietnam"}},{"type":"Feature","geometry":{"type":"LineString","coordinates":[[108.827287,13.557335],[108.9097,13.5378],[108.929167,13.547361],[109.2371,13.6986]]},"properties":{"boundary_group":"world-admin1-vietnam"}},{"type":"Feature","geometry":{"type":"LineString","coordinates":[[108.663289,14.520582],[108.6669,14.596],[108.8142,14.6733],[109.0714,14.6776]]},"properties":{"boundary_group":"world-admin1-vietnam"}},{"type":"Feature","geometry":{"type":"LineString","coordinates":[[105.5426,20.3671],[105.624873,20.342213],[105.6745,20.3243],[105.7135,20.4196],[105.8413,20.4195]]},"properties":{"boundary_group":"world-admin1-vietnam"}},{"type":"Feature","geometry":{"type":"LineString","coordinates":[[105.8413,20.4195],[105.963407,20.286334]]},"properties":{"boundary_group":"world-admin1-vietnam"}},{"type":"Feature","geometry":{"type":"LineString","coordinates":[[105.963407,20.286334],[106.068866,20.246901],[106.149586,20.219474],[106.150419,20.192965],[106.124968,20.059028],[106.1145,20.0333]]},"properties":{"boundary_group":"world-admin1-vietnam"}},{"type":"Feature","geometry":{"type":"LineString","coordinates":[[105.963407,20.286334],[105.9524,20.3908],[106.0709,20.4833],[106.17594,20.502445]]},"properties":{"boundary_group":"world-admin1-vietnam"}},{"type":"Feature","geometry":{"type":"LineString","coordinates":[[106.17594,20.502445],[106.2196,20.4137],[106.2795,20.3926],[106.2676,20.3316],[106.3494,20.3645],[106.506725,20.296572]]},"properties":{"boundary_group":"world-admin1-vietnam"}},{"type":"Feature","geometry":{"type":"LineString","coordinates":[[106.17594,20.502445],[106.084059,20.626371]]},"properties":{"boundary_group":"world-admin1-vietnam"}},{"type":"Feature","geometry":{"type":"LineString","coordinates":[[106.084059,20.626371],[106.2574,20.6959]]},"properties":{"boundary_group":"world-admin1-vietnam"}},{"type":"Feature","geometry":{"type":"LineString","coordinates":[[106.2574,20.6959],[106.4172,20.7193]]},"properties":{"boundary_group":"world-admin1-vietnam"}},{"type":"Feature","geometry":{"type":"LineString","coordinates":[[106.4172,20.7193],[106.469,20.6007],[106.5868,20.6633]]},"properties":{"boundary_group":"world-admin1-vietnam"}},{"type":"Feature","geometry":{"type":"LineString","coordinates":[[106.4172,20.7193],[106.4605,20.7212],[106.519372,20.773665],[106.5432,20.7949],[106.51704,20.819515],[106.498518,20.856654],[106.510004,20.874805]]},"properties":{"boundary_group":"world-admin1-vietnam"}},{"type":"Feature","geometry":{"type":"LineString","coordinates":[[104.9086,21.1014],[105.080524,20.975389],[105.125926,20.947877],[105.202259,20.933346],[105.3327,20.9188],[105.3079,21.0119]]},"properties":{"boundary_group":"world-admin1-vietnam"}},{"type":"Feature","geometry":{"type":"LineString","coordinates":[[105.3079,21.0119],[105.435136,21.003769],[105.4863,21.0005],[105.516,20.8286],[105.7858,20.5683]]},"properties":{"boundary_group":"world-admin1-vietnam"}},{"type":"Feature","geometry":{"type":"LineString","coordinates":[[105.7858,20.5683],[105.8413,20.4195]]},"properties":{"boundary_group":"world-admin1-vietnam"}},{"type":"Feature","geometry":{"type":"LineString","coordinates":[[105.5676,22.5922],[105.6093,22.47],[105.4998,22.2952],[105.4886,22.1544],[105.5575,21.9509]]},"properties":{"boundary_group":"world-admin1-vietnam"}},{"type":"Feature","geometry":{"type":"LineString","coordinates":[[105.5575,21.9509],[105.551618,21.893529],[105.524223,21.626356],[105.5777,21.5438]]},"properties":{"boundary_group":"world-admin1-vietnam"}},{"type":"Feature","geometry":{"type":"LineString","coordinates":[[105.5777,21.5438],[105.3174,21.5141]]},"properties":{"boundary_group":"world-admin1-vietnam"}},{"type":"Feature","geometry":{"type":"LineString","coordinates":[[105.3174,21.5141],[105.228891,21.60961],[105.1118,21.7039]]},"properties":{"boundary_group":"world-admin1-vietnam"}},{"type":"Feature","geometry":{"type":"LineString","coordinates":[[105.1118,21.7039],[105.0934,21.8145],[104.8483,22.1702]]},"properties":{"boundary_group":"world-admin1-vietnam"}},{"type":"Feature","geometry":{"type":"LineString","coordinates":[[105.1118,21.7039],[104.918566,21.604044],[104.903899,21.585075],[104.9193,21.3979],[104.8285,21.3296]]},"properties":{"boundary_group":"world-admin1-vietnam"}},{"type":"Feature","geometry":{"type":"LineString","coordinates":[[105.5777,21.5438],[105.6361,21.4889],[105.76412,21.369917]]},"properties":{"boundary_group":"world-admin1-vietnam"}},{"type":"Feature","geometry":{"type":"LineString","coordinates":[[105.76412,21.369917],[105.7627,21.105],[105.4945,21.1737],[105.431519,21.279062]]},"properties":{"boundary_group":"world-admin1-vietnam"}},{"type":"Feature","geometry":{"type":"LineString","coordinates":[[105.431519,21.279062],[105.448575,21.300489],[105.3174,21.5141]]},"properties":{"boundary_group":"world-admin1-vietnam"}},{"type":"Feature","geometry":{"type":"LineString","coordinates":[[105.431519,21.279062],[105.418539,21.300778],[105.3538,21.3014],[105.2849,21.1915],[105.312679,21.033021],[105.3079,21.0119]]},"properties":{"boundary_group":"world-admin1-vietnam"}},{"type":"Feature","geometry":{"type":"LineString","coordinates":[[105.76412,21.369917],[105.9208,21.3281]]},"properties":{"boundary_group":"world-admin1-vietnam"}},{"type":"Feature","geometry":{"type":"LineString","coordinates":[[105.9208,21.3281],[105.945,21.2475]]},"properties":{"boundary_group":"world-admin1-vietnam"}},{"type":"Feature","geometry":{"type":"LineString","coordinates":[[105.945,21.2475],[105.922,21.1505],[105.998074,21.004054]]},"properties":{"boundary_group":"world-admin1-vietnam"}},{"type":"Feature","geometry":{"type":"LineString","coordinates":[[105.998074,21.004054],[105.961882,20.972483],[105.913023,20.92986],[105.913866,20.881017],[106.0072,20.7132]]},"properties":{"boundary_group":"world-admin1-vietnam"}},{"type":"Feature","geometry":{"type":"LineString","coordinates":[[106.0072,20.7132],[105.985761,20.703267],[105.8095,20.6216],[105.7858,20.5683]]},"properties":{"boundary_group":"world-admin1-vietnam"}},{"type":"Feature","geometry":{"type":"LineString","coordinates":[[106.114,21.9481],[105.812471,21.783049],[105.796924,21.83048],[105.743441,21.993643],[105.690594,22.001242],[105.5844,21.957],[105.5575,21.9509]]},"properties":{"boundary_group":"world-admin1-vietnam"}},{"type":"Feature","geometry":{"type":"LineString","coordinates":[[106.084059,20.626371],[106.0072,20.7132]]},"properties":{"boundary_group":"world-admin1-vietnam"}},{"type":"Feature","geometry":{"type":"LineString","coordinates":[[105.998074,21.004054],[106.1522,20.9978]]},"properties":{"boundary_group":"world-admin1-vietnam"}},{"type":"Feature","geometry":{"type":"LineString","coordinates":[[106.1522,20.9978],[106.122,20.8328],[106.2574,20.6959]]},"properties":{"boundary_group":"world-admin1-vietnam"}},{"type":"Feature","geometry":{"type":"LineString","coordinates":[[105.945,21.2475],[106.298,21.1341]]},"properties":{"boundary_group":"world-admin1-vietnam"}},{"type":"Feature","geometry":{"type":"LineString","coordinates":[[106.298,21.1341],[106.304121,21.050072],[106.296713,21.009808],[106.268373,20.999997],[106.1522,20.9978]]},"properties":{"boundary_group":"world-admin1-vietnam"}},{"type":"Feature","geometry":{"type":"LineString","coordinates":[[106.5458,21.1937],[106.495669,21.215892],[106.441463,21.227039],[106.397455,21.211694],[106.3232,21.153761],[106.298,21.1341]]},"properties":{"boundary_group":"world-admin1-vietnam"}},{"type":"Feature","geometry":{"type":"LineString","coordinates":[[105.9208,21.3281],[106.050763,21.446514],[106.0671,21.4614],[106.0504,21.6327],[106.1438,21.621],[106.1655,21.5171]]},"properties":{"boundary_group":"world-admin1-vietnam"}}]}
